,id,name,address,city,state,zip
0,RVbZaawgEGmto6TxOoVBdQ,Running Goose,1620 N Cahuenga Blvd,Los Angeles,CA,90028
1,z0zaCVA-p_5xTsyUZrmR0g,République,624 S La Brea Ave,Los Angeles,CA,90036
2,7O1ORGY36A-2aIENyaJWPg,Howlin' Ray's,727 N Broadway,Los Angeles,CA,90012
3,DrToq9357afdpOyO5w0Y5w,Yup Dduk La,3603 W 6th St,Los Angeles,CA,90020
4,6i7KnRylm4bhPIApDFSVCg,Dave's Hot Chicken,970 N Western Ave,Los Angeles,CA,90029
5,DJek3FUewBzMc0gS-Gms9w,The Morrison,3179 Los Feliz Blvd,Los Angeles,CA,90039
6,MlmcOkwaNnxl3Zuk6HsPCQ,Slurpin' Ramen Bar,3500 W 8th St,Los Angeles,CA,90005
7,fxeuGYnoRWwm5aGDg1FRJA,Marugame Monzo,329 E 1st St,Los Angeles,CA,90012
8,h1R2iKYdm2lwukzMJvJqDw,Hangari Bajirak Kalguksu,3470 W 6th St,Los Angeles,CA,90020
9,fEY0zHaDMfIW3-N__joDKQ,Bestia,2121 E 7th Pl,Los Angeles,CA,90021
10,GPGSBlT_Qivav8vH_d2yOg,Din Tai Fung,10250 Santa Monica Blvd,Los Angeles,CA,90067
11,CcqraT0cuGKYEcZ1ri_kxg,BROKEN MOUTH | Lee's Homestyle,231 E 9th St,Los Angeles,CA,90015
12,uzAbw27XQTXTivjgf2bN2w,Han Bat Sul Lung Tang,4163 W 5th St,Los Angeles,CA,90020
13,h2u-coGd8WWClyU3b7jf8w,Met Her At A Bar,759 S La Brea Ave,Los Angeles,CA,90036
14,kdTFcDSl9vAR-btEm1Q2uw,Bao Dim Sum House,8256 Beverly Blvd,Los Angeles,CA,90048
15,AIhWsp8yNfKZfaX9d9Yajg,Pasta Sisters,3343 W Pico Blvd,Los Angeles,CA,90019
16,23Qrcz2i9e2e8MstUIIO0A,Yuko Kitchen,5484 Wilshire Blvd,Los Angeles,CA,90036
17,KtEMG1Aln3vQzte92QJxlw,Genwa Korean BBQ,5115 Wilshire Blvd,Los Angeles,CA,90036
18,0SerWqGwzNWpTA2RBLVdUg,Sun Nong Dan,3470 W 6th St,Los Angeles,CA,90020
19,mcHP3IfI1b7bXJZKD6PLHA,Angry Birdz,5065 Hollywood Blvd,Los Angeles,CA,90027
20,qAAoilHU25Qr45FOQlA19g,Kang Ho-dong Baekjeong,3465 W 6th St,Los Angeles,CA,90020
21,SqWYLEwZxJY7Et8w24lzjw,Crispy School,526 S Occidental Blvd,Los Angeles,CA,90057
22,XrPVlXXa4cHLm7qKWFkfCg,A Food Affair,1513 S Robertson Blvd,Los Angeles,CA,90035
23,6RDro8iSto0thExOPC3SIw,LA Brisket,736 N Broadway,Los Angeles,CA,90012
24,b4SH4SbQUJfXxh6hNkF0wg,Eggslut,317 S Broadway,Los Angeles,CA,90013
25,iSZpZgVnASwEmlq0DORY2A,Daikokuya Little Tokyo,327 E 1st St,Los Angeles,CA,90012
26,K-Fbh2WCHlqR56H9TnfpNA,Perch,448 S Hill St,Los Angeles,CA,90013
27,30jrTz8vh1xSXdtXMvt-mA,My Two Cents,5583 W Pico Blvd,Los Angeles,CA,90019
28,fF8g2rPfFHsX-AMtU7JMjQ,Jokbal 1030,3465 W 6th St,Los Angeles,CA,90020
29,3C2wUqSkpY4-N0O5ArVjwQ,Yuk Dae Jang,3033 W 6th St,Los Angeles,CA,90020
30,qCJ2LFfNbXYBIcjXNva1cA,Langer's,704 S Alvarado St,Los Angeles,CA,90057
31,KQBGm5G8IDkE8LeNY45mbA,Wurstküche,800 E 3rd St,Los Angeles,CA,90013
32,CV0KQ5WpplP2hmzMFtjlgQ,Cleo,1717 Vine St,Los Angeles,CA,90028
33,ohosmz6FXVAeoW5nUkYwng,Pine & Crane,1521 Griffith Park Blvd,Los Angeles,CA,90026
34,BzmbRSKGs56Yw2w2R12khw,Hoy-Ka Thai Restaurant,5908 Sunset Blvd,Los Angeles,CA,90028
35,OVYbBxiA-MFNE3wSKlSlgg,The Little Door,8164 W 3rd St,Los Angeles,CA,90048
36,TkFEKhsCixPWlShULKvMdQ,Bottega Louie,700 S Grand Ave,Los Angeles,CA,90017
37,WjuO8PhtqINeWqm-ei8NQA,Dumpling House,3525 W 3rd St,Los Angeles,CA,90020
38,F64dimaPmt7_imQ4s2yGow,Gogobop Korean Rice Bar,3456 Wilshire Blvd,Los Angeles,CA,90010
39,g2ELNNj3M9qOMyo94fxX9Q,The Parker Room,1358 Vine St,Los Angeles,CA,90028
40,kF_lSWagvBreXwEpCMdHhQ,Grand Central Market,317 S Broadway,Los Angeles,CA,90013
41,AxPJlSxkCJVJk3sSTL_8OA,Philippe the Original,1001 N Alameda St,Los Angeles,CA,90012
42,ki5SNb4Lli6uOklz6BXXGw,Blu Jam Café,7371 Melrose Ave,Los Angeles,CA,90046
43,CTFZnhYe6t2tLv_NLHiE-w,Open Sesame,7458 Beverly Blvd,Los Angeles,CA,90036
44,IzRINfSLBr6k_dq1e2WNew,Guelaguetza Restaurante,3014 W Olympic Blvd,Los Angeles,CA,90006
45,cSSyQ9xttMy6Gn8TFyNH7w,Spare Tire Kitchen & Tavern,5370 Wilshire Blvd,Los Angeles,CA,90036
46,N0kzCd-kxaHxdJ1pBbF4iA,Rascal,801 S La Brea Ave,Los Angeles,CA,90036
47,ZlQo_ArRw-nnHcrcnYPbiA,Yang Chow,819 N Broadway,Los Angeles,CA,90012
48,6Dd4kTDiikEB3wQp___0fA,Taqueria Los Anaya,4651 W Adams Blvd,Los Angeles,CA,90016
49,Dnn4_XmzQxOFNpnqh7KyWg,Seongbukdong,3303 W 6th St,Los Angeles,CA,90020
50,pjh40JY5YwWeV8aKhkXERg,Myungrang Hot Dog-California Market LA,450 S Western Ave,Los Angeles,CA,90020
51,E4W2T89vm4hmBwk39EoUuw,Tatsu Ramen,7111 Melrose Ave,Los Angeles,CA,90046
52,rr-hXB0ZqXLzUP97yftp0g,Osteria Mamma,5732 Melrose Ave,Los Angeles,CA,90038
53,PXYKRPkEcf4Mczfp_AfP0w,Corn Man,2338 Workman St,Los Angeles,CA,90031
54,vfHJzF0ShYtwmotXE-0PiA,Figueroa Philly Cheese Steak,3850 S Figueroa St,Los Angeles,CA,90037
55,0z23Jk7U_MpvtqKINPL2fA,Dirt Dog,2528 S Figueroa St,Los Angeles,CA,90007
56,JYGPEUZy4k5ObXGIjcD3DA,Hae Jang Chon Korean BBQ Restaurant,3821 W 6th St,Los Angeles,CA,90020
57,6QeZEUhFk1_vZhWvktKnmA,Fat Sal's,1300 N Highland Ave,Los Angeles,CA,90028
58,BDRVlHnK4l0T0ANb7M-Eqg,Guisados,1261 W Sunset Blvd,Los Angeles,CA,90026
59,k8xtuersBm2cZl0Lao2K5g,The Bun Shop,151 N Western Ave,Los Angeles,CA,90004
60,TWHGJkTAbF22hvXeReQp9w,Kobawoo House,698 S Vermont Ave,Los Angeles,CA,90005
61,PQGsaaJ9YVL_Sgiy7aB70Q,Street Food Of Seoul,3500 W 6th St,Los Angeles,CA,90020
62,FoEMpu0X_bGCb7yRreMxMQ,Tsujita LA Artisan Noodle,2057 Sawtelle Blvd,Los Angeles,CA,90025
63,gd6PYDx-leOM97a3MWoO1g,Maccheroni Republic,332 S Broadway,Los Angeles,CA,90013
64,WwC3_ApPhjTbv2YT5pH2oA,Yardbird Southern Table & Bar,8500 Beverly Blvd,Los Angeles,CA,90048
65,e8yeADAtTGRyzkOLG5iKSg,Little Jewel of New Orleans,207 Ord St,Los Angeles,CA,90012
66,N05X5dnwzpWvLg7ZRcMtcA,Escala,3451 W 6th St,Los Angeles,CA,90020
67,c65CdRbg7ag7wKNt9Id9bQ,Oasis Mediterranean Cuisine,1663 South La Cienega Blvd,Los Angeles,CA,90035
68,4Zx7Lw4U6F0sXrV4aiIyqQ,Majordōmo,1725 Naud St,Los Angeles,CA,90012
69,wo3wnj3pMSOPkzqpvbey-g,Bavel,500 Mateo St,Los Angeles,CA,90013
70,8TUWLXWgswfRfMBymL0WRg,COD Restaurant,8408 W 3rd St,Los Angeles,CA,90048
71,vW1v050Lf2M2719K1D10PQ,Sweet Chick,448 N Fairfax Ave,Los Angeles,CA,90036
72,PlQjtbZKOw7exAUfrswhNQ,The Kimbap,400 S Western Ave,Los Angeles,CA,90020
73,eNPaF_hVdpxMkzyq9kenYQ,The Park's Finest,1267 W Temple St,Los Angeles,CA,90026
74,9OhKC782fYh0akM1VIfMxQ,The Carving Board,7300 Sunset Blvd,Los Angeles,CA,90046
75,Fb3WueRF1ekhs72psinq5w,Mario's Peruvian & Seafood,5786 Melrose Ave,Los Angeles,CA,90038
76,gjPZZzmkVANey4vGFYmC7A,Little Sister,523 W 7th St,Los Angeles,CA,90017
77,fBLnD9qxQggvDSPyOBsBLg,Ong Ga Nae Korean BBQ,936 South Vermont Ave,Los Angeles,CA,90006
78,PpVsIH7cA_mLZEOlzqrY8g,Lao Tao,727 N Broadway,Los Angeles,CA,90012
79,4X8j8QlBiF61ezICJYf5tw,LONO Hollywood,6611 Hollywood Blvd,Los Angeles,CA,90028
80,1YLtpWtdOPZ2FeGpyBrzxA,Cafe Parisien,244 N Larchmont Blvd,Los Angeles,CA,90004
81,od-e09qz8bvZOtGuPTwHMg,RockSugar Southeast Asian Kitchen,10250 Santa Monica Blvd,Los Angeles,CA,90067
82,ktUtN287fE34-4XZupuGSA,The Sycamore Kitchen,143 S La Brea Ave,Los Angeles,CA,90036
83,3PYUJTfqcebeIOOqOLbMGQ,Chego!,727 N Broadway,Los Angeles,CA,90012
84,G_V5eJFfYlTEERyIPR-8MQ,Otium,222 S Hope St,Los Angeles,CA,90012
85,Lop79P2KM9zFUCCaBYz6zA,Tlayuda La Restaurant,5450 Santa Monica Blvd,Los Angeles,CA,90029
86,1ZEUvoDlg7ixlwwlK2a3mQ,HaSunSaeng - MasterHA,1147 S Western Ave,Los Angeles,CA,90006
87,q97MIGXESdhak-LhGKDl0Q,Sqirl,720 N Virgil Ave,Los Angeles,CA,90029
88,hwzXnZuNa6yo32swVVhtaw,Grub,911 Seward St,Los Angeles,CA,90038
89,WnEQZDZ86ozJjnAkw8tYRQ,Chinchikurin - Little Tokyo,350 E 1st St,Los Angeles,CA,90012
90,TzIJzamxdVGc3zReKbLGaA,Providence,5955 Melrose Ave,Los Angeles,CA,90038
91,CbW8U0QAwh5XRkaLt0xNZA,Masa of Echo Park,1800 W Sunset Blvd,Los Angeles,CA,90026
92,iFQOcE33X12V_iO4WY1qqg,Tokyo Cube,3175 Cahuenga Blvd W,Los Angeles,CA,90068
93,VqG_rccDoUXreiaHH0DEUA,Guisados DTLA,541 S Spring St,Los Angeles,CA,90013
94,L3YM8cAda9L_t_j-2C4ufA,Sage Vegan Bistro - Echo Park,1700 Sunset Blvd,Los Angeles,CA,90026
95,1_snyhjeEuI70cozQW0fzA,Rutt's Hawaiian Cafe,11707 Washington Pl,Los Angeles,CA,90066
96,sPw1o5OYWE5C2JtbTXp5wg,Jon & Vinny's,412 N Fairfax Ave,Los Angeles,CA,90036
97,nqYbRGPmYA0X_sjSBtXpgw,Sidewalk Grill,1727 N Vermont Ave,Los Angeles,CA,90027
98,kr9RZATtNwJznY9TaMexUA,Te'Kila,6541 Hollywood Blvd,Los Angeles,CA,90028
99,sYn3SNQP-j2t2XSwjlCbRg,Monty's Good Burger,516 S Western Ave,Los Angeles,CA,90020
100,IxuAHGu-eQ4fZJZTdzGTYQ,Gus's World Famous Fried Chicken,1262 Crenshaw Blvd,Los Angeles,CA,90019
101,1e_j1BtMaTinWLC52RJI9w,Marmalade Cafe - LA,6333 West 3rd St,Los Angeles,CA,90036
102,c7xLlX7RjxD0WUcl2sm4Lw,Faith & Flower,705 W 9th St,Los Angeles,CA,90015
103,H9ZlIqEp930ZRniH6VRp8w,Papa Cristo's,2771 W Pico Blvd,Los Angeles,CA,90006
104,Baqs3SIHR60lXxXAFkjTDg,Bludso's Bar & Que,609 N La Brea Ave,Los Angeles,CA,90036
105,xLN_-pgHhbaM8uazk_Uv7A,Bäco Mercat,408 S Main St,Los Angeles,CA,90013
106,xU6pcazbyB1lxA631YJEkg,Joy,5100 York Blvd,Los Angeles,CA,90042
107,6ytRLP9rivVIcMptLYkfkA,Rasselbock L.A. Kitchen & Beer Garden,3817 Grand View Blvd,Los Angeles,CA,90066
108,hC745S5W4HTq606ySmBJNw,KazuNori  | The Original Hand Roll Bar,421 S Main St,Los Angeles,CA,90013
109,cD57FLQ-v-brcFOLZ0X0cQ,LA Rose Cafe,4749 Fountain Ave,Los Angeles,CA,90029
110,yJ9wI3NEy65oGMKjtaGIxA,Odys and Penelope,127 S La Brea,Los Angeles,CA,90036
111,8OpRgGTpyyAeEm7OQX69OQ,Kass Wine Bar & Restaurant,320 S La Brea Ave,Los Angeles,CA,90036
112,eXZyAF5Xk1u-d9vnkeNPXg,Birdies,314 W Olympic Blvd,Los Angeles,CA,90015
113,gNwaZaUdvWuzdAsevrbb5w,Barkada,1253 Vine St,Los Angeles,CA,90038
114,71W-QN3-_DHnzUkAc7EG6Q,Stout Burgers & Beers,1544 N Cahuenga Blvd,Los Angeles,CA,90028
115,HXWdcnzYG1zmf0vDplmEEQ,The Crack Shack,10250 Santa Monica Blvd,Los Angeles,CA,90067
116,nGlLaC0p0naSlgdy2-HCVw,71 Above,633 W 5th St,Los Angeles,CA,90071
117,qDmJaJjLtjcB4Evd-VCbNA,Simpang Asia,10433 National Blvd,Los Angeles,CA,90034
118,_NEcYN1YhwHnkFsXlSTdHw,Papilles Bistro,6221 Franklin Ave,Los Angeles,CA,90028
119,P-pAAi56zMPPHfO7xf_wQQ,Nong La Cafe,145 N La Brea Ave,Los Angeles,CA,90036
120,TsVu9GJQwuFBZVP_sg2k7A,Quarters Korean BBQ,3465 W 6th St,Los Angeles,CA,90020
121,LLj451UZrvt3SkZVrEZ4ew,Myung Dong Kyoja,3630 Wilshire Blvd,Los Angeles,CA,90010
122,c6-7m0hafQmFyBgWU2XtIg,Marugame Udon,2029 Sawtelle Blvd,Los Angeles,CA,90025
123,bKeJWK8yxAo0x5y_0kGyVA,Mercado Hollywood,3413 Cahuenga Blvd W,Los Angeles,CA,90068
124,3NNz-pVT_auFKzqt45D2ZA,Western Doma Noodles,429 N Western Ave,Los Angeles,CA,90004
125,Wjckf5QPdVQw1ZG82zEarA,M Grill,3832 Wilshire Blvd,Los Angeles,CA,90010
126,lCQaymsrtgmWDMPcEuueeQ,Slab,8136 W 3rd St,Los Angeles,CA,90048
127,vC_6J_nGyf4J8xt-Vu6Shw,Chichen Itza Restaurant,3655 S Grand Ave,Los Angeles,CA,90007
128,qpcH_Fub586U2kw_pQJS3w,Guisados,2100 East Cesar E Chavez Ave,Los Angeles,CA,90033
129,tYlfZ4llQPd5xgQZLT1ILQ,The District by Hannah An,8722 W 3rd St,Los Angeles,CA,90048
130,-KqNRM-drDM7Nu9i9xEnfA,La Pergoletta,1802 Hillhurst Ave,Los Angeles,CA,90027
131,ru7TAEo7lkbxMmkbFRGFMw,La Cevicheria,3809 W Pico Blvd,Los Angeles,CA,90019
132,IMoMSsC3oDqcNZCQXyo8iQ,Concerto,610 S Serrano Ave,Los Angeles,CA,90005
133,-XwCatxfjyujeYbhh6ukrQ,Larchmont Village Wine Spirits & Cheese,223 N Larchmont Blvd,Los Angeles,CA,90004
134,ZROWIc3EfvE5kiLu-uedTw,Witch's Chicken,3250 W Olympic Blvd,Los Angeles,CA,90006
135,Lke7X_Yug8ZB8M8mf5vSVw,Chinchikurin,2119 Sawtelle Blvd,Los Angeles,CA,90025
136,1k6hSTQO9E4iSzwyx8yTUw,Ta-eem Grill,7422 Melrose Ave,Los Angeles,CA,90046
137,N7kYNSjGm4MEao5BMRCIgQ,Preux & Proper,840 S Spring St,Los Angeles,CA,90014
138,YJxXNldDQ7L8cKzTdjT72Q,Angry Chicken,1275 S Bronson Ave,Los Angeles,CA,90019
139,GbAZbcCR969hfa4kCQqRcw,Eat This Cafe,6547 Santa Monica Blvd,Los Angeles,CA,90038
140,_hljp2lAVTCaTMGxORvybA,Sushi One,3905 W 6th St,Los Angeles,CA,90020
141,4B_hWagBKAMcsotnnoH30Q,Little Pine,2870 Rowena Ave,Los Angeles,CA,90039
142,0O1PywQt1i2APvECFSSoBw,Hinoki & The Bird,10 W Century Dr,Los Angeles,CA,90067
143,-dXUxVZA3SL0W482Ccjkfg,Catch 56,5615 Hollywood Blvd,Los Angeles,CA,90028
144,Evi45sCTHEVUbJ1j_iNGgg,Shaquille’s,800 W Olympic Blvd,Los Angeles,CA,90015
145,z959VbY5YuiAyJhTS_PgWA,Mendocino Farms,175 S Fairfax Ave,Los Angeles,CA,90036
146,RAzUPIaCuqufZoPV9gwzUQ,Honeybird,3201 S Hoover St,Los Angeles,CA,90007
147,6GTaESIP0r1oFunFqqevsw,Cafe Gratitude - Larchmont,639 N Larchmont Blvd,Los Angeles,CA,90004
148,ORXAkSK7yKdT5kPCvXhk4w,Humble Potato,12608 Washington Blvd,Los Angeles,CA,90066
149,Z57u3vyjkRiO5yIOkmGRNA,Carousel Restaurant,5112 Hollywood Blvd,Los Angeles,CA,90027
150,YetYHIRKrZDGHZ50I_RMag,Joe's Falafel,3535 Cahuenga Blvd W,Los Angeles,CA,90068
151,hOHWu75whwn2hSc2HvRc6w,Night + Market Song,3322 W Sunset Blvd,Los Angeles,CA,90026
152,BAnC30_CaFiBOd6Fv9KgBg,Animal,435 N Fairfax Ave,Los Angeles,CA,90036
153,YBmk31pBPukmnRyioe5uBA,Sushi Gen,422 E 2nd St,Los Angeles,CA,90012
154,93Svns_JtCP3__wxlcSsbg,Prank,1100 S Hope St,Los Angeles,CA,90015
155,phMPgmi6-yh3Qs_PRbTT1g,Mercado Los Angeles,7910 W 3rd St,Los Angeles,CA,90048
156,QKovUc1TmSNtZh0j5ZEagw,Leo's Tacos Truck,1515 S La Brea Ave,Los Angeles,CA,90019
157,iD-G9bACYgkBWOq_IAGVVA,The Grain Cafe,4222 W Pico Blvd,Los Angeles,CA,90019
158,PX8INO1KIEn9kLGKQz8U-w,Ham Ji Park,3407 W 6th St,Los Angeles,CA,90020
159,bY6RStcfjyCJtDr8nLpohQ,Dune,3143 Glendale Blvd,Los Angeles,CA,90039
160,NrzSO_pQ88A3jSMqh_QuNg,Magal BBQ,3460 W 8th St,Los Angeles,CA,90005
161,_lrLfLy3e2jr-zGigfFW4A,Revolutionario: North African Tacos,1436 W Jefferson Blvd,Los Angeles,CA,90007
162,PYCWGTASwon7ExTSzK9a5w,Le Petit Marché,5665 Melrose Ave,Los Angeles,CA,90038
163,Wg2VeeGsAcOEa_0qI1vgQw,Sushi by H,480 S San Vicente Blvd,Los Angeles,CA,90048
164,INEbr7OmgiqlMWq5Cta8WA,Ahgassi Gopchang,3744 W 6th St,Los Angeles,CA,90005
165,VIZ_2-UWfpmfPbrRXfVpAg,Mimimyunga,450 S Western Ave,Los Angeles,CA,90020
166,H4ew518bqV4ew61g-brTrQ,Button Mash,1391 Sunset Blvd,Los Angeles,CA,90026
167,0WyRlH-fxOVLh1b3oEBEEQ,Urth Caffé- Downtown LA,451 S Hewitt St,Los Angeles,CA,90013
168,IpDvRa89VGWYahqBQ5bzhw,Jinsol Gukbap,4253 3rd St,Los Angeles,CA,90020
169,6b1Kud4nDwsqw1kILxI9ZQ,ixlb DimSum Eats,5900 Sunset Blvd,Los Angeles,CA,90028
170,MQCGRBup0TngpyftcLxQOg,Urban Skillet,5060 Lankershim Blvd,Los Angeles,CA,91601
171,cywwDn2SYCoef0PUYOXygw,La Pupusa Urban Eatery,1051 W Washington Blvd,Los Angeles,CA,90015
172,UZlLBVnqs9Ikphin8CMVcA,Plan Check Kitchen & Bar,1111 Wilshire Blvd,Los Angeles,CA,90017
173,QWtzUp4zLqzjA_jxLbvDvA,Granny's Kitchen,5440 S Central Ave,Los Angeles,CA,90011
174,cygrATWq2weoWXI_N4j62g,Hokkaido Ramen Santouka,3760 S Centinela Ave,Los Angeles,CA,90066
175,yAuYzMcr57EVrPzyOcODlQ,Comfort LA,1110 E 7th St,Los Angeles,CA,90021
176,df6TLmeTiLyzrKnAPKnn2w,The Oinkster,2005 Colorado Blvd,Los Angeles,CA,90041
177,dC7ZBsc1_YFF0lBcZn-PZg,Ave 26 Taco Stand,W Ave 26 Humboldt St,Los Angeles,CA,90031
178,ZMYlZNqq1eWG70OGvuXD4A,We Have Noodles,3827 Sunset Blvd,Los Angeles,CA,90026
179,LNb-ElJwKIXS6Lx5xdRB1Q,Toca Madera,8450 W 3rd St,Los Angeles,CA,90048
180,pAWfcO6e2ae2pIkJXWO-yA,Roscoe's House of Chicken & Waffles,1514 N Gower St,Los Angeles,CA,90028
181,9xyjvSkidMTngtyZ6-Upaw,Crossroads,8284 Melrose Ave,Los Angeles,CA,90046
182,HTFByVH44biQsc_R8sEOjg,BCD Tofu House,3575 Wilshire Blvd,Los Angeles,CA,90010
183,KxSkOgk1-IHwK9XgM_N8Ew,Eight Korean BBQ,863 S Western Ave,Los Angeles,CA,90005
184,udINVeecZdXtmCgbBIZi7A,Tatsu Ramen,2123 Sawtelle Blvd,Los Angeles,CA,90025
185,atasQmdwOXb0otZ4B56BVg,fundamental LA,1303 Westwood Blvd,Los Angeles,CA,90024
186,1lxtw52CJ9ip6VqQCzt2Fw,The Burrow,821 S Flower St,Los Angeles,CA,90014
187,h_VkRMpSrtjdKDxUJ7sDOQ,Lala's Argentine Grill,7229 Melrose Ave,Los Angeles,CA,90046
188,NIQdMk1fJ3hrPwwJEhmX2w,DeLuscious Cookies & Milk,829 N Highland Ave,Los Angeles,CA,90038
189,WJmzdY8wZh8bBx5vbE14oQ,The Kitchen,4348 Fountain Ave,Los Angeles,CA,90029
190,E-NAwWgfnEWd-wr9rst06Q,BaoHaus,727 N Broadway,Los Angeles,CA,90012
191,5SVj7kpiXxCEnkzL_8wA1g,Redbird,114 E 2nd St,Los Angeles,CA,90012
192,kXrHt3XkNd_q5rISuvuvVg,Berlins,8474 W 3rd St,Los Angeles,CA,90048
193,ul2dT8QzauKP5Yc-q_DZ_g,HomeState,4624 Hollywood Blvd,Los Angeles,CA,90027
194,cAwkHVjhAJpsZOayXgUIHw,Three Borders Brunch & Grill,5269 W Olympic Blvd,Los Angeles,CA,90036
195,LlaXbuPQBsRXjZFEx5Wkjw,Pace,2100 Laurel Canyon Blvd,Los Angeles,CA,90046
196,PfHYIFTflHuHGXM-Lvy97w,Hock+Hoof,517 S Spring St,Los Angeles,CA,90013
197,Z3zQNPHL3TFhaJYeVKGp4g,Hunter & Charlie's,1050 Vine St,Los Angeles,CA,90038
198,bdm3708B0OJW9xDdaKVH_A,Gol Tong Chicken,3625 W 6th St,Los Angeles,CA,90020
199,q8buTNBt3FU9vie0D5OOxA,Pizzeria Mozza,641 N Highland Ave,Los Angeles,CA,90036
200,adrzBN4C3jpoCAzJX-xscw,Pa Ord Noodle,5301 W Sunset Blvd,Los Angeles,CA,90027
201,us0WnDOySVXXXwCqs0AaCw,いざかや おせん- IZAKAYA OSEN,2903 Sunset Blvd,Los Angeles,CA,90029
202,VS_7q4eJbIv2VPHkU0CIVQ,Papa's Chicken,3003 W Olympic Blvd,Los Angeles,CA,90006
203,98KeJCu_8XbfOXB1aRAW1A,Salazar,2490 N Fletcher Dr,Los Angeles,CA,90039
204,0vRsHjV66oUDcszA8EWq0w,Kali Restaurant,5722 Melrose Ave,Los Angeles,CA,90038
205,oNHjZ3wC0F9l5KpuqHd45w,Ricky's Fish Tacos,3201 Riverside Dr,Los Angeles,CA,90027
206,E3FcxLk7-HQqbdQKr7cd0A,Mh Zh,3536 Sunset Blvd,Los Angeles,CA,90026
207,Osce6shPInsQLAhtJEJnng,El Zarape,5203 Fountain Ave,Los Angeles,CA,90029
208,tW4eYiMzeWtcJS7kLHL54g,Pampas Grill,6333 W 3rd St,Los Angeles,CA,90036
209,BkbxnRNmQi6j0-_COI-LCg,The Roof on Wilshire,6317 Wilshire Blvd,Los Angeles,CA,90048
210,llKP5-ZAG8I-RVbKrSatQQ,Chibiscus Asian Cafe,7361 W Sunset Blvd,Los Angeles,CA,90046
211,jVYU9iXvBMiC2A4H12Azfg,AOC,8700 W 3rd St,Los Angeles,CA,90048
212,qA9Dqezi-kqbIBtM3c07Ew,Manuela,907 E 3rd St,Los Angeles,CA,90013
213,IzLRBCRlworctabyPjvXjw,BBQ + RICE Korean BBQ Bowls,7363 W Sunset Blvd,Los Angeles,CA,90046
214,m_Mb47u9F_G8NR0Fmg6GRg,CAVA,3201 S Hoover,Los Angeles,CA,90089
215,RarITW4zBvhqKAK8FVOFCQ,Supremo,901 S La Brea Ave,Los Angeles,CA,90036
216,ayObtPXjSe0gALk8HVAxKg,Bowery Bungalow,4156 Santa Monica Blvd,Los Angeles,CA,90029
217,vrGfzIrzeKbXZ_WGubBb3Q,Boo's Philly Cheesesteaks - Silverlake,4501 Fountain Ave,Los Angeles,CA,90029
218,-c_jds7PzXTiFLaQvsLptA,Olsons Scandinavian Delicatessen,5660 W Pico Blvd,Los Angeles,CA,90019
219,CKvSkiZU3SQ_TYacHhnkFQ,Ssam Korean BBQ,1040 S Western Ave,Los Angeles,CA,90006
220,1nV2NBbRXiWYqjSNcSsYWA,Farmhouse,8509 W 3rd St,Los Angeles,CA,90048
221,lRScnMRd-FBlT5QQyrUEUQ,PASTA e PASTA by Allegro,432 E 2nd St,Los Angeles,CA,90012
222,xVSv26KBQexP4M0l63SGlg,Alcove Café & Bakery,1929 Hillhurst Ave,Los Angeles,CA,90027
223,lve4JGg7Kk5k4s9h7aMaUw,Blue Palms Brewhouse,6124 Hollywood Blvd,Los Angeles,CA,90028
224,uGG2jfr3ROvKN0DbPK-7xQ,Commerson,788 S La Brea Ave,Los Angeles,CA,90036
225,9FuxqbYXM0vaPnzrQ7B_qQ,Soowon Galbi KBBQ Restaurant,856 S Vermont Ave,Los Angeles,CA,90005
226,KOuqS-inE44o9-1Jix9Tag,Shojin Downtown,333 S Alameda St,Los Angeles,CA,90013
227,eoOJbi94rj9277dG7WIv0A,Home Restaurant - Los Feliz,1760 Hillhurst Ave,Los Angeles,CA,90027
228,IbSO3urVCNUsis_yKNYvUQ,Orleans & York Deli,4454 W Slauson Ave,Los Angeles,CA,90043
229,QRp8xguSU7XeXH72LDnRFw,Versailles,1415 S La Cienega Blvd,Los Angeles,CA,90035
230,0jOt0ODWCp8fJzzOM4PgqA,Little Fatty,3809 Grand View Blvd,Los Angeles,CA,90066
231,w5EOeYOoxmbYWJ1sUVD94w,Comfort Kitchen,5700 Wilshire Blvd,Los Angeles,CA,90036
232,H6zhdp4uIC7a8Dq-ZBjH4Q,Wax Paper,2902 Knox Ave,Los Angeles,CA,90039
233,0qP_mke-sPJELjdhYyBt4g,Small Town,2764 Rowena Ave,Los Angeles,CA,90039
234,CXmJB5LZeda27UeBGzk75Q,Pho Saigon Pearl,519 S Fairfax Ave,Los Angeles,CA,90036
235,5xFBQiB4Jcy9sI2fUHfcpg,Mariscos Jalisco,3040 E Olympic Blvd,Los Angeles,CA,90023
236,BEItepse0gBSfkJ4sb_k-g,Hae Ha Heng Thai Bistro,301 S Western Ave,Los Angeles,CA,90020
237,eUkd8atkJe4fkKGcD5QZ1A,HATCH Yakitori + Bar,700 W 7th St,Los Angeles,CA,90017
238,TNkfaiMFw1e6dKWxTtGJHw,Vernetti,225 N Larchmont Blvd,Los Angeles,CA,90004
239,UdpE_5k2c3zsGBFdcAjMGA,Ruen Pair,5257 Hollywood Blvd,Los Angeles,CA,90027
240,pDqUvoNY1kR963MJnfnL6Q,Water Grill- Los Angeles,544 S Grand Ave,Los Angeles,CA,90071
241,bvpxd7o3RZtz50YLpDsgLA,El Chato Taco Truck,5300 W Olympic Blvd,Los Angeles,CA,90019
242,DAw3V6KMp-Z4Wbr0dSObUg,The Bento Place,1110 S Western Ave,Los Angeles,CA,90006
243,5swh0JcDk0VrNF6oA2_MfA,HoHo Chicken,2625 W 6th St,Los Angeles,CA,90057
244,jaLRtJ7YGYcCszfiBFxoHQ,Silverlake Ramen,2927 W Sunset Blvd,Los Angeles,CA,90026
245,jS8MhTJpHmGYuxcKonGG-A,Kismet,4648 Hollywood Blvd,Los Angeles,CA,90027
246,7qZBxWisbeVI34gIeNpP1A,Palms Thai Restaurant,5900 Hollywood Blvd,Los Angeles,CA,90028
247,AgUSfMByb7r4ffVR2WYMuw,Rustic Kitchen Market & Cafe,3523 S Centinela Ave,Los Angeles,CA,90066
248,EKrVpJqTXBjbbJPgHusibQ,Stevie's Creole Cafe,5545 W Pico Blvd,Los Angeles,CA,90019
249,DryPvekrxsqbpOJNOajRpA,Golden State,426 N Fairfax Ave,Los Angeles,CA,90036
250,jCDnwiF2JN5OBbzwlrWuhA,Myung In Dumplings,3109 W Olympic Blvd,Los Angeles,CA,90006
251,tDeuHjIUJrHeELrKEekXtA,n/naka,3455 Overland Ave,Los Angeles,CA,90034
252,-3S1PdyDbSQcqkIaX8VKrQ,Wirtshaus German Restaurant & Beer Garden,345 N La Brea Ave,Los Angeles,CA,90036
253,rJDsg0rZfuT0tsXbDaxRgA,Son of a Gun,8370 W 3rd St,Los Angeles,CA,90048
254,XFWlU7sXDL3SIy7rmUVQpA,Daw Yee Myanmar Corner,2837 Sunset Blvd,Los Angeles,CA,90026
255,OowWjnNFs-Lfw0Kfx8GmJw,Izakaya Fu-ga,111 S San Pedro St,Los Angeles,CA,90012
256,u9sTaFMUwRTsRBozTzNZog,LASA,727 N Broadway,Los Angeles,CA,90012
257,s_7GKYJX19rJrmxp2EBA-Q,Stuff'd Dumpling Shop,6909 Melrose Ave,Los Angeles,CA,90038
258,UJg9U_6djc7Wc089s1hFCg,Honey Bee's House of Breakfast,4715 W Adams Blvd,Los Angeles,CA,90016
259,EZYxkHi9nhI2Hg5KDdxyLw,Beer Belly,532 S Western Ave,Los Angeles,CA,90020
260,gxrQw6uNbO7AYMykhePHAQ,The Ivy,113 N Robertson Blvd,Los Angeles,CA,90048
261,HvDYCHDpgBy3CmzRD6gcMg,Ktown Pho,974 S Western Ave,Los Angeles,CA,90006
262,ciZAxEwbFBafvf2UGUxySw,Tsuri,7015 Melrose Ave,Los Angeles,CA,90038
263,Dv6-iy7-tN8ETAjqW6eg4g,Next Door Lounge,1154 N Highland Ave,Los Angeles,CA,90038
264,NlT-6hFP0_6hPo36AW2lIA,Poppy + Rose,765 Wall St,Los Angeles,CA,90014
265,ssAlyvM97hroBeVPVJPgwA,Versailles Cuban Food,10319 Venice Blvd,Los Angeles,CA,90034
266,Qo4F-RObp5GXE_-vZXzD5g,Olympic Noodle,4008 W Olympic Blvd,Los Angeles,CA,90019
267,khApvUwH1Xhe3MtaXmaZsg,The Kickin’ Crab,6122 W Sunset Blvd,Los Angeles,CA,90028
268,AmtMwS2wCbr3l-_S0d9AoQ,Aroma Cafe,2530 Overland Ave,Los Angeles,CA,90064
269,81kXeyBt1AKiJC_HITT9KA,Blue Cow Kitchen & Bar,350 S Grand Ave,Los Angeles,CA,90071
270,tGusz6xqBBABc1awGP1aLA,Shabuya,1925 West Olympic Blvd,Los Angeles,CA,90006
271,iqjA5r6w_bFB2R4hseqhhQ,Dino's Chicken and Burgers,2575 W Pico Blvd,Los Angeles,CA,90006
272,Kdfu2ZNUp7jKta9j2cZ2NA,Hayato,1320 E 7th St,Los Angeles,CA,90021
273,KOeuULPL0ZrIqfVU_Zcyhw,Mike's Deli,4859 W Slauson Ave,Los Angeles,CA,90056
274,aQFguaddjBna3ZIBsxjeeA,Joan's on Third,8350 W 3rd St,Los Angeles,CA,90048
275,bkE3p4c1mpPIo2x4gDQKVA,Petit Trois,718 N Highland Ave,Los Angeles,CA,90038
276,YoQn8MtOimQbqi839TmeZw,Osteria Mozza,6602 Melrose Ave,Los Angeles,CA,90038
277,Bq6I52mOTyC2iDHU2rh_5w,El Cartel,5515 Wilshire Blvd,Los Angeles,CA,90036
278,YVbO3FENQQzcDwxtlrR1Iw,Mister Bossam,338 S Western Ave,Los Angeles,CA,90020
279,7uMwkbHjyUooBlMf7Ws9TQ,THE CLOUDY GARLIC,2750 Colorado Blvd,Los Angeles,CA,90041
280,jqS3dVaCYeBehb3tOiWWbQ,Shin-Sen-Gumi Hakata Ramen - Little Tokyo,132 S Central Ave,Los Angeles,CA,90012
281,GaRW1RqFkdeuczWjta7jrA,Mari Kimbap Shop,3417 W 6th St,Los Angeles,CA,90020
282,1OXJaygVHAEGooC5gsH_Pg,La Esquina,8905 Venice Blvd,Los Angeles,CA,90034
283,IO94U9tWIVuw93g2ahEyEQ,Loupiotte Kitchen,1726 N Vermont Ave,Los Angeles,CA,90027
284,xcGGRbDXSGzefu_5dI8wqA,Yuchun,3185 W Olympic Blvd,Los Angeles,CA,90006
285,v_bJfxA5IhDmkA_4KgZ2pA,Wah's Golden Hen,709 N Virgil Ave,Los Angeles,CA,90029
286,GWkTJVxzieQM2KfaAk9sBQ,Golden Lake Eatery Cambodian Restaurant,424 W College St,Los Angeles,CA,90012
287,ikilMjaOsysLYWIE2RRmTQ,Golden Mongolian Restaurant,3012 Wilshire Blvd,Los Angeles,CA,90010
288,T_lvBpk8Y7oOpc3WzWgkMQ,The Venue,3470 Wilshire Blvd,Los Angeles,CA,90010
289,Aeq9k4UbQwCRdbc7UBD99w,Shabu Hyang,3807 Wilshire Blvd,Los Angeles,CA,90010
290,g1RqknBKd1r1ajHW8xhAkQ,Hollywood Burger,6250 Hollywood Blvd,Los Angeles,CA,90028
291,EiGZST3PxwKs94PTOsD4eQ,Pho 87,1019 N Broadway,Los Angeles,CA,90012
292,VzHJuws0xqcqDe5D9vNRUw,Lobster & Beer,3456 Motor Ave,Los Angeles,CA,90034
293,tqjJYK3KyBjHRDsMT9kCpw,Oi Asian Fusion,4734 Hollywood Blvd,Los Angeles,CA,90027
294,7s6lIJrg0EMfHYG6tYTMqg,El Cochinito Restaurant,3508 W Sunset Blvd,Los Angeles,CA,90026
295,Emurmrl9E3vOXmiEcq3qkw,Bird's Nest Cafe,2403 S Vermont Ave,Los Angeles,CA,90007
296,LtQu-lT9Hpm_n_5LcXsdYA,Sulga Jinju Gom Tang House of Beef Soup,4451 Beverly Blvd,Los Angeles,CA,90004
297,4LFbJ8P4jCh70ZNKRig0qw,EMC Seafood & Raw Bar,3500 W 6th St,Los Angeles,CA,90020
298,ta7GyGyMGnn_LeJkUeLqdQ,Wood Spoon,107 W 9th St,Los Angeles,CA,90015
299,7BZjZLN-YDmFb4Y3N-3aJw,ShaBuShi,5185 Sunset Blvd,Los Angeles,CA,90027
300,sYcLm4n3k-FYZm_bKTUJ-g,HAEMARU,3498 W 8th St,Los Angeles,CA,90005
301,2Z7pKTwHhFwuH-aTCgd-Rg,India's Tandoori,5468 Wilshire Blvd,Los Angeles,CA,90036
302,gWM5n5Tyo5h74t-_lp1WUA,Zzamong,4255 W 3rd St,Los Angeles,CA,90004
303,AyZUXwC5E-U6WInXGqcmcA,Sanamluang Cafe,5176 Hollywood Blvd,Los Angeles,CA,90027
304,cG2QWy4XDW4V-l4ufEKYnQ,Lalibela Ethiopian Restaurant,1025 S Fairfax Ave,Los Angeles,CA,90019
305,3XTjerBg_PywBN81Ts45Bg,India's Restaurant,4366 Fountain Ave,Los Angeles,CA,90029
306,s9_gk-ABcZ8uOEQjD1bK7g,Banh Oui,1552 N Cahuenga Blvd,Los Angeles,CA,90028
307,TQjFx3yzyUYBdWb-MpIfvQ,Fisherman's Outlet,529 S Central Ave,Los Angeles,CA,90013
308,fCfkMf27m2PcTWXLTrLM7Q,Fratelli Cafe,7200 Melrose Ave,Los Angeles,CA,90046
309,nYD88woJ2pQn8iGPi6emrQ,10e,811 W 7th St,Los Angeles,CA,90017
310,RrqZgfxIKRi6_s6lXaYVzQ,Carney's Sunset Strip,8351 W Sunset Blvd,Los Angeles,CA,90069
311,GQinsAGZTF-MRCJWj3Iknw,The Ricans Food,777 Alameda St,Los Angeles,CA,90021
312,hagTEXx6TQqcT6d_2gz_5w,Rich's BBQ,4100 Sunset Blvd,Los Angeles,CA,90029
313,ERqWIIhbV4d_x_1pvoSsgA,DaeBuDo,3916 Wilshire Blvd,Los Angeles,CA,90010
314,KAG0aFy962JY38UeWI8pWQ,H&H Brazilian Steakhouse,518 W 7th St,Los Angeles,CA,90014
315,_FNbXphJ3YwQ0WpE4tCyWg,El Huarachito,3010 N Broadway,Los Angeles,CA,90031
316,OUvSg5Z9VI7APmaAdqyWVQ,The Black Sheep,126 E 6th St,Los Angeles,CA,90013
317,drtTr9Mxv4mv_AjZ4gvq5A,Pink's Hot Dogs,709 N La Brea Ave,Los Angeles,CA,90038
318,7eOMv-sQMWRzYCeeQVatJw,Melrose Umbrella,7465 Melrose Ave,Los Angeles,CA,90046
319,U8BIlthPiYnygxg8OlFFfA,Mesón Cafe,459 N Western Ave,Los Angeles,CA,90004
320,b1jidrgK5asQBXQ0Y0cvvg,TGI Korean BBQ,2585 W Olympic Blvd,Los Angeles,CA,90006
321,Kx_d7X7qjj9EoX-A7eC3gA,Maggiano's Little Italy,189 The Grove Dr,Los Angeles,CA,90036
322,SDoOIzuz4k3m-SP071aykA,Chunju Han-il Kwan,3450 W 6th St,Los Angeles,CA,90020
323,2yTisMkNDVEvrwrkDwYv4g,Cafe Beaujolais,1712 Colorado Blvd,Los Angeles,CA,90041
324,ZzpC4bW5mY0AOoGznnyIsg,Ondal 2,4566 W Washington Blvd,Los Angeles,CA,90016
325,P9Dt_kkU5BTe1v0tJ4KFNw,Angelini Osteria,7313 Beverly Blvd,Los Angeles,CA,90036
326,r-fSfUmzulH_k8_hfrEFVw,All About the Bread,7111 Melrose Ave,Los Angeles,CA,90046
327,7HANpUE8WiO_7drbeZpjvA,Doomie's Home Cookin',1253 Vine St,Los Angeles,CA,90038
328,X9KlLFQGSgC0A-q-p1Hu6Q,Egg Tuck,3881 Wilshire Blvd,Los Angeles,CA,90020
329,-2j7SP_13FMBGOr4ds_nfQ,Wings & Pot,2108 W Manchester Ave,Los Angeles,CA,90047
330,7qa2fr_eF2_OmlkLc0b95A,Ceviche Project,2524 Hyperion Ave,Los Angeles,CA,90027
331,7pKS39Tdt0c1hAhdxOWZqA,House of Curry,1888 S Western Ave,Los Angeles,CA,90006
332,BsQtoQWb1-SJkVyEra6MxQ,Backyard Bowls,8303 Beverly Blvd,Los Angeles,CA,90048
333,GKQApReu8U9hip4A2ApJ_A,Osteria La Buca,5210 Melrose Ave,Los Angeles,CA,90038
334,lQNqa01QtgBbk29ivqmTKg,Hana Kitchen,854 N Vermont Ave,Los Angeles,CA,90029
335,WEf8lpukPEwKTuc6mYolRA,Spoon By H,7158 Beverly Blvd,Los Angeles,CA,90036
336,HEmvIWG0hKlYyPF4orQE6A,Craft,10100 Constellation Blvd,Los Angeles,CA,90067
337,yqfZcttHy2WdYFzMQQaXoA,Le Petit Paris,418 /420 S Spring St,Los Angeles,CA,90013
338,Yl185EZNI0eZiO8Jyrh3PA,Takasan Japanese Bowls,225 W 7th St,Los Angeles,CA,90014
339,m0OgyFfWE62eDf7kpSp-2w,Jopok Topokki,3407 W 6th St,Los Angeles,CA,90013
340,Rd_IrRGjqsxsvaXoaTqcVw,Saint Felix,1602 N Cahuenga Blvd,Los Angeles,CA,90028
341,C-XzWJ99b6nFCQAAfh3mrQ,Fukurou Ramen,5103 Hollywood Blvd,Los Angeles,CA,90027
342,xVgz_F3gnbhyn_2goJ8vYQ,Pinches Tacos,8200 W Sunset Blvd,Los Angeles,CA,90046
343,26fIBSlQkaTa29uoKAvZOw,Burgers Never Say Die,2388 Glendale Blvd,Los Angeles,CA,90039
344,JBeSWzpDI8eh2xG4-ZVy4g,Yangji Gamjatang,3470 W 6th St,Los Angeles,CA,90020
345,xY3GGdmvSFUIm-B_RFIjwQ,La Noche Buena Restaurant,12 Olvera St,Los Angeles,CA,90012
346,vfpUVXdHSBK1hci4xfX04g,Eighth Street Soondae,2703 W 8th St,Los Angeles,CA,90005
347,6qbzxyz_EB5ZU73y-0gTaQ,Khun Mae Ploy Thai Cuisine,2701 Sunset Blvd,Los Angeles,CA,90026
348,Zg7jtPJGmsnysO8uDKtYxg,Gwen Butcher Shop,6600 Sunset Blvd,Los Angeles,CA,90028
349,E2uZXOwEyfPXR8xmGH0SGg,OB Bear,3002 W 7th St,Los Angeles,CA,90005
350,O97WUjVSFZqt1GycJZjlMA,BongChu,3377 Wilshire Blvd,Los Angeles,CA,90010
351,W72Vw4dDILjmFtSC0z2CCw,Mitsuru Cafe,117 Japanese Village Plz Mall,Los Angeles,CA,90012
352,U87EaXDc2rl1Ix5K8ijWug,Jeonju Hyundaiok,3020 Wilshire Blvd,Los Angeles,CA,90010
353,Xi-0-fWLZ2zXVVT_GFThiw,The 8th Notch,3500 Wilshire Blvd,Los Angeles,CA,90010
354,frRPjJ03Ie5h9EPhFhjNIw,Bulgogi Hut,3600 Wilshire Blvd,Los Angeles,CA,90010
355,CGJLSb8h5XF0zOzsFjY7WA,The Stocking Frame,911 S Hill St,Los Angeles,CA,90015
356,uW5G6PjMAEXBWDlpDis6-A,Gusto,8022 W 3rd St,Los Angeles,CA,90048
357,VQz6yZBj3l_T2XX-4mLV-Q,Emporium Thai,1275 Westwood Blvd,Los Angeles,CA,90024
358,B6fT0KdNWPKH9Yjaz06NiA,Biriyani Kabob House,3525 W 3rd St,Los Angeles,CA,90020
359,dh_xOxlwzYeCIWHhrG8Yrw,Robata JINYA,8050 West 3rd St,Los Angeles,CA,90048
360,vnLHXjXRK3Euzkq8vRYzqA,Barton G. The Restaurant Los Angeles,861 N La Cienega Blvd,Los Angeles,CA,90069
361,uA3TautyZ7bby0w8Scwufg,Benny's Tacos & Chicken Rotisserie,7101 W Manchester Ave,Los Angeles,CA,90045
362,83nE-wxvQkKPWeeXS0_hWA,Little Next Door,8142 W 3rd St,Los Angeles,CA,90048
363,ccJcaRCHQkJmmnGC1SN4hQ,Louder's,3470 W 6th St,Los Angeles,CA,90020
364,M1gfVovlpZJPLU5l6PIXqg,Klat,621 S Western Ave,Los Angeles,CA,90005
365,Sb_hPko42AEdCbX5Nut5hA,Red's Flavor Table,2812 W Florence Ave,Los Angeles,CA,90043
366,eCfyO7laigVXu5VnaPcdmQ,Openaire,3515 Wilshire Blvd,Los Angeles,CA,90010
367,Kz8ZETLCLPNzzs9Tb4u1SQ,Colori Kitchen,429 W 8th St,Los Angeles,CA,90014
368,mLbTDZsYKkV5Ynnz-X87iQ,Square One Dining,4854 Fountain Ave,Los Angeles,CA,90029
369,cg2mFqdyzsSdaLxcTdHwow,Choon Chon Chicken,3063 W 8th St,Los Angeles,CA,90005
370,nxOmiITLYE3AdEqrSZIRDg,Young King,3100 W Olympic Blvd,Los Angeles,CA,90006
371,pLxVKpsSL27fUvE1ShrdOw,RiceBar,419 W 7th St,Los Angeles,CA,90014
372,vs8USEc1A480H8MnmFKs5A,Chadolpoong,3470 W 6th St,Los Angeles,CA,90020
373,4grbsxnUnyKgmXmvSWBKKw,KaGaYa,418 E 2nd St,Los Angeles,CA,90012
374,f3PFV3Kw7TLFcF3E9YgTSw,La Fonda Antioquena,5125 Melrose Ave,Los Angeles,CA,90004
375,KAAYV8WKRg47oEfJzAJCOA,Bird on the Tree Cafe,5223 Wilshire Blvd,Los Angeles,CA,90036
376,EB-RtApkwptE3wRCQO8bCw,Badmaash - Downtown LA,108 W 2nd St,Los Angeles,CA,90012
377,h9PSJ18gQ4kos8A0XAGlng,Carlitos Gardel Argentine Steakhouse,7963 Melrose Ave,Los Angeles,CA,90046
378,rG2Z5U0XAyItBBxRh6QiWA,Industriel,609 S Grand Ave,Los Angeles,CA,90017
379,BZcPwijPRqY7tynRzt2UTA,Eggslut,8500 Beverly Blvd,Los Angeles,CA,90048
380,57h63V30fRwAP6tm5Rs7Sg,Roscoe's House of Chicken & Waffles,5006 W Pico Blvd,Los Angeles,CA,90019
381,zpCjv61s-5b-WJSd8opFvA,Candela,831 S La Brea Ave,Los Angeles,CA,90036
382,GWABkxx9UKETfcfZdtA1_g,Jun Won Restaurant,414 S Western Ave,Los Angeles,CA,90020
383,AZyLsJTbviqWYOOXnUKFqA,Church & State,1850 Industrial St,Los Angeles,CA,90021
384,gKp39Lke5LPAerJ9QV-HQg,Inti Restaurant,5870 Melrose Ave,Los Angeles,CA,90038
385,EWbbiUBkGzCYrEoOF05HzA,Gracias Madre,8905 Melrose Ave,West Hollywood,CA,90069
386,RgLppz8IyYLM6eQZklOv9w,Spitz - Los Feliz,1725 Hillhurst Ave,Los Angeles,CA,90027
387,KW6SuvmXZOBJSvMDhk8KUw,Casa Sanchez,4500 S Centinela Ave,Los Angeles,CA,90066
388,Ti2Ksp2oPj6rpdp2tQcaVA,Sonoratown,208 E 8th St,Los Angeles,CA,90014
389,45U2ip1V3vHyHDh8RziUlw,by CHLOE. Silver Lake,2520 Glendale Blvd,Los Angeles,CA,90039
390,Fx_O-3ZSGr9PH6_sU-bL9Q,Bon Shabu,601 S Ardmore Ave,Los Angeles,CA,90005
391,tJsZbLxMiykQCek_-diOvg,Sushi Enya,343 E 1st St,Los Angeles,CA,90012
392,AZgVdklWtIJ-jmfJmCeMRA,Bluestone Lane,176 S La Brea Ave,Los Angeles,CA,90036
393,0_-4iI3bouR0DWhtCyIbcQ,The Henry,120 N Robertson Blvd,Los Angeles,CA,90048
394,ierxTDAcyBrBXFyMadrAlA,Burgerlords,943 N Broadway,Los Angeles,CA,90012
395,EHRDheGgmdQYfwEL7X04Pw,Plato,3474 W 8th St,Los Angeles,CA,90005
396,FlL2h3iROzhAIVBp3OaA9g,Road To Seoul,1230 S Western Ave,Los Angeles,CA,90006
397,CmM-kuVt9Q6XHqcaljxF8A,Market Provisions,8009 Beverly Blvd,Los Angeles,CA,90048
398,XT5o_SKmmpIGvwDKYZw5tg,The Highlight Room Grill,6417 Selma Ave,Los Angeles,CA,90028
399,VscSML6lgNgjJbm41Jqjog,SOL Mexican Cocina,12775 W Millennium Dr,Los Angeles,CA,90094
400,NxcF38OxJN9Iq6g6xoOAnQ,Here's Looking At You,3901 W 6th St,Los Angeles,CA,90020
401,sKzG-reXj6ZrcS4qG4ohIQ,My Little Dumpling,8432 W 3rd St,Los Angeles,CA,90048
402,yQVPKXmDIUb6yH3MM8Q3nQ,Strada Eateria & Coffee,119 E 5th St,Los Angeles,CA,90013
403,sDjVjW6RcZ0YpBBNoJQ3jg,SHYO Original Ramen,5028 Melrose Ave,Los Angeles,CA,90038
404,XMkmgUwX3fetzLc0rumkiQ,Terra Cotta,3760 Wilshire Blvd,Los Angeles,CA,90010
405,-cwr9yJXxSMQZ0GP3NkVog,Jeong Yuk Jeom,621 S Western Ave,Los Angeles,CA,90005
406,AQ3og6fgkPHPkwT6k3KWlQ,Itaewon Izakaya,414 S Western Ave,Los Angeles,CA,90020
407,DFxdMe57YmQ54HK3cu3vpQ,Torigoya,123 Astronaut E S Onizuka St,Los Angeles,CA,90012
408,Ls0cIqY-v6CqNoE2rHjBNg,Noshi Sushi,4430 Beverly Blvd,Los Angeles,CA,90004
409,FPBsEp6Ecp_JE7KD5NsDeA,Cafe Los Feliz,2118 Hillhurst Ave,Los Angeles,CA,90027
410,sEeKjiCBChIQVks-4XjTJA,Killer Noodle Tsujita,2030 Sawtelle Blvd,Los Angeles,CA,90025
411,VhKyyEcOll0rrOLAbZio3Q,Shin Ramen,1655 N La Brea Ave,Los Angeles,CA,90028
412,Aq1vM8LCcb8mdpCOKCdlsw,Tsubaki,1356 Allison Ave,Los Angeles,CA,90026
413,gLn9MKqseb1leWZOWqD54g,Mocha City,4221 Wilshire Blvd,Los Angeles,CA,90010
414,cK9wMWnQEW9MdYjc-YWueg,The Factory Kitchen,1300 Factory Pl,Los Angeles,CA,90013
415,bJCvnSjXjdKACc0VSpLJLA,Feast,6282 Hollywood Blvd,Los Angeles,CA,90028
416,pqxhRRGGR9OTUFh1V_LjzQ,Jaffa,8048 West 3rd St,Los Angeles,CA,90048
417,azyDb-6veFabKKIfLleiMg,Tere's Mexican Grill,5870 Melrose Ave,Los Angeles,CA,90038
418,fD4ntpbf92ufSHn5tSmSxA,DeSano Pizza Bakery,4959 Santa Monica Blvd,Los Angeles,CA,90029
419,OQtm6aFK58dUVJRBMTxyqg,Kinjiro,424 E 2nd St,Los Angeles,CA,90012
420,ALUAIZZrhELXUQIKfi52yA,Pollen,2100 Echo Park Ave,Los Angeles,CA,90026
421,YhJC5FWtyN66BWt67Cif6g,La Carmencita,1156 N Highland Ave,Los Angeles,CA,90038
422,s-sCboSIw150t_IaEcOSeA,Kasih,200 S Los Angeles St,Los Angeles,CA,90012
423,aJgVt9hQ7HDZAQBBk-xw_w,Jeon Ju Restaurant,2716 W Olympic Blvd,Los Angeles,CA,90006
424,K3msdd0tuGwuE2fm_W94MQ,Best Fish Taco In Ensenada,1650 Hillhurst Ave,Los Angeles,CA,90027
425,UaTbD7uRLi1N7GVf928q7Q,Eagle Rock Kitchen,2501 Colorado Blvd,Los Angeles,CA,90041
426,beA_DlDpij8O9xK2B-NjEA,Mex Perú Gipsy,414 E 12th St,Los Angeles,CA,90015
427,RFHPuxxJCbndsLD3ukf4RA,Eastside Market Italian Deli,1013 Alpine St,Los Angeles,CA,90012
428,5V7zNZ9IdSUCYrZRXAg2hA,Yard House,800 W Olympic Blvd,Los Angeles,CA,90015
429,UlOdAUpnTWYbg5KJhKVdpg,Daikokuya Sawtelle,2208 Sawtelle Blvd,Los Angeles,CA,90064
430,fDIERa8MupwJMTJ97upAPg,Ackee Bamboo Jamaican Cuisine,4305 Degnan Blvd,Los Angeles,CA,90008
431,uteG6HIb4an-y5fFCXWo7w,Anarkali Indian Restaurant,7013 Melrose Ave,Los Angeles,CA,90038
432,hsg7A_rxF-G4Zp0TgAsIfw,Freedman's,2619 Sunset Blvd,Los Angeles,CA,90026
433,mmgFAxTuXjEePnxST5rQQw,Matjip,3077 W 8th St,Los Angeles,CA,90005
434,sfGM1J-gEWaS1QUTJ_4BzQ,Bolt,5648 Hollywood Blvd,Los Angeles,CA,90028
435,eHwdLWQrg4nr_3fuiH_jhQ,Honey Night,3526 W 8th St,Los Angeles,CA,90005
436,uZwILwzeMbHwH3-Caxb47Q,Brothers Sandwich Shop,3274 W 6th St,Los Angeles,CA,90020
437,wQydEn8-XnvWX_cXGxqudw,Marinate,5009 Melrose Ave,Los Angeles,CA,90038
438,YIR9z52KElQJeCxXFx5pGQ,Phillips Barbecue,2619 Crenshaw Blvd,Los Angeles,CA,90016
439,v9RZZLxE39Zx9L0mXB8kww,Shabu Shabu House,127 Japanese Village Plaza Mall,Los Angeles,CA,90012
440,wtp1izuuno7wsPBhPRcGqw,Library Bar,630 W 6th St,Los Angeles,CA,90017
441,sHMQqLZqaMCZa5ICqpGiNg,Crab House,923 S Vermont Ave,Los Angeles,CA,90006
442,4_m1nEcmKomgzQj0wleURw,Soom Soom Fresh Mediterranean,8744 W 3rd St,Los Angeles,CA,90048
443,f-1shORInoTnFOXf6qq8Ww,Tamales Alberto,1644 W Temple St,Los Angeles,CA,90026
444,UUlGlPfy0FsReQ2LWWBSWw,Tire Shop Taqueria,4069 S Avalon Blvd,Los Angeles,CA,90011
445,-CW_jNF0-x1RAhlGjX3JUg,Andre's Italian Restaurant,6332 W 3rd St,Los Angeles,CA,90036
446,_8Tvjpgu56ioJf0ohHzUUg,Seoul Garden Restaurant,1833 W Olympic Blvd,Los Angeles,CA,90006
447,Cz5YxnhGIA_HcXCrUEMfEA,Curry House,123 Astronaut E S Onizuka St,Los Angeles,CA,90012
448,R02yvpCAL64FgxLmoswAew,Ma Dang Gook Soo,869 S Western Ave,Los Angeles,CA,90005
449,-uxK5hNz5fpeNOgIZo8AKA,Suehiro Cafe,337 E 1st St,Los Angeles,CA,90012
450,OSqzQvVG_5RFB5EMLA9BXw,Tasty Noodle House,8054 W 3rd St,Los Angeles,CA,90048
451,UPS373VijAWw6TeYPXmItg,Super Tortas DF,1098 E 41st St,Los Angeles,CA,90011
452,M2mLuHbmDzwR8QMGqdLjrQ,Truxton's American Bistro,8611 Truxton Ave,Los Angeles,CA,90045
453,3nmc_ykZgrWyDOP76HUMYg,Carrera Cafe,8251 Melrose Ave,Los Angeles,CA,90046
454,RY_72fCN2JsR9pbTBJD-LQ,Cielito Lindo,E-23 Olvera St,Los Angeles,CA,90012
455,9T2bBH4n0_i7KhE0kPQiPw,Honey Hi,1620 Sunset Blvd,Los Angeles,CA,90026
456,V-eVoKK5lhj8Fk_cw3AGRA,Summer Buffalo,7275 Melrose Ave,Los Angeles,CA,90046
457,6KWWh5MEe0WePoUOd2sxxQ,Sushi Ippo,3800 Wilshire Blvd,Los Angeles,CA,90010
458,5CfGlbabm_k2giOb_QQrGQ,Severance,7274 Melrose Ave,Los Angeles,CA,90046
459,3e9GNOPdQH6SRxSPkw2FTQ,Forage,3823 W Sunset Blvd,Los Angeles,CA,90026
460,w1vKvsHrbaMZ52W9_REs2A,Wongs Wok Silver Lake,2554 Glendale Blvd,Los Angeles,CA,90039
461,MngSqXZbc4-x8lZTby1SrA,Himalayan House,1277 W Jefferson Blvd,Los Angeles,CA,90007
462,qEldyliWxlU5wGgC3N9hqA,Twist Cafe,4357 Wilshire Blvd,Los Angeles,CA,90010
463,x1Rn_VGbt1zzi_mxtB80wg,Pokémolé,530 S Occidental Blvd,Los Angeles,CA,90057
464,rLKI1EzuwGUFixHtqXqZ9g,25 Degrees,7000 Hollywood Blvd,Los Angeles,CA,90028
465,RMi8jn4ZBnAL3-l1T7tjmA,Oaxacan Quesadilla Cart,1246 Echo Park Ave,Los Angeles,CA,90026
466,4ZmXcttDdx9KRGUi6tMWFQ,Dulan's On Crenshaw,4859 Crenshaw Blvd,Los Angeles,CA,90043
467,LcRB5s8-VDCSmpxWK0lwfw,FryMadness,555 S Spring St,Los Angeles,CA,90013
468,dxLiwx8Ghcm0AWNph0xrVw,The Dragon and Meeple,3742 S Flower St,Los Angeles,CA,90007
469,OwoEStx-D5Dy5cGedkXrdQ,Blacksmiths,117 Winston St,Los Angeles,CA,90013
470,h3KzTYozazMtdhS8C1qBXg,The Semi-Tropic,1412 Glendale Blvd,Los Angeles,CA,90026
471,xvkQxQ8WoNoHwHw5rqxLuA,The Carving Board,11676 Gateway Blvd,Los Angeles,CA,90064
472,hqR-2X38R1Xl-8Jh_G3WNQ,LA Paella,476 S San Vicente Blvd,Los Angeles,CA,90048
473,wBeNozAR6wlJLTEwdWdPQg,Father's Office,3229 Helms Ave,Los Angeles,CA,90034
474,hafmNRWqoLKQ10dMVDh-yQ,Elf Café,2135 W Sunset Blvd,Los Angeles,CA,90026
475,nUT0BaARIUa1I_qV39mj9A,Ostrich Farm,1525 W Sunset Blvd,Los Angeles,CA,90026
476,mBD3hhlyqc2A301Y1CVwUg,un solo sol,1818 E 1st St,Los Angeles,CA,90033
477,E68xieHpN3TgXjTaV84Urg,Duidough Cafe & Cookie Lab,6334 Selma Ave,Los Angeles,CA,90028
478,IygcFrP7yIComDXZKxDasg,The Park,1400 Sunset Blvd,Los Angeles,CA,90026
479,F-rQ33zVrlNIPBFPoXZOSQ,Cactus Taqueria #1,950 Vine St,Los Angeles,CA,90038
480,PFi2KCQzPNqWMdw8HXcdAA,Pann's Restaurant,6710 La Tijera Blvd,Los Angeles,CA,90045
481,77OCLqNangVVY-GHXAE7ng,The NoMad Restaurant,649 S Olive St,Los Angeles,CA,90014
482,LwOGo0Hnq9PErejOvOP0HQ,Nocturnal Eats,1842 W Washington Blvd,Los Angeles,CA,90007
483,cEGNvEu0QtRLs7uVqY0dag,Mendocino Farms,735 S Figueroa St,Los Angeles,CA,90071
484,W8RQPUOgLC7d_kO0h3B_QA,California Chicken Cafe,6805 Melrose Ave,Los Angeles,CA,90038
485,rf20-kFTkk9BC4tfr8K_3g,Trejos Tacos - La Brea,1048 S La Brea Ave,Los Angeles,CA,90019
486,bntaaduchQQiBI7Dt12Pgw,Thank U Pho,3522 B W 8th St,Los Angeles,CA,90005
487,zRzmTeTnjf7Gm4WQzqd1xQ,Totoyama Sushi & Ramen,6201 Hollywood Blvd,Los Angeles,CA,90028
488,foBzz8XUsfttltHQSmLS3w,Gracie's Pizza,4330 Melrose Ave,Los Angeles,CA,90029
489,l2TpbvvizsNl-GBCRb8I1A,Taste of Tehran,1915 Westwood Blvd,Los Angeles,CA,90025
490,PMj1TDcrvYTxEXd-g9LcWA,Zinc Cafe & Market,580 Mateo St,Los Angeles,CA,90013
491,Wbysqh4S6OlrTy8oRuitpw,Milpa Grille,2633 E Cesar E Chavez Ave,Los Angeles,CA,90033
492,coTzuG6YYIwexqL4BOTeNQ,Buil Samgye Tang,4204 W 3rd St,Los Angeles,CA,90020
493,FfuuxavSBU_umwIVr2r8bw,Hatchet Hall,12517 W Washington Blvd,Los Angeles,CA,90066
494,aPehkzrXIOoIqQzoFyc33w,Guisados,3500 Wilshire Blvd,Los Angeles,CA,90010
495,U7-UBPHK44Y_9wyfOmuHuA,The Boiling Crab,3377 Wilshire Blvd,Los Angeles,CA,90010
496,Q3pwRtT8v8oTCKFEYJgCbg,Cassell's Hamburgers,3600 W 6th St,Los Angeles,CA,90020
497,8fnmCiqpLdtU2XvmofwjpA,Hoy's Wok Chinese Restaurant,7105 W Sunset Blvd,Los Angeles,CA,90046
498,ra8QFgeKZYNRaYABohgHNg,Leo's Tacos Truck,5525 Sunset Blvd,Los Angeles,CA,90028
499,zC__7xADu7cWu-RE6P4Npg,Michin Dak,3324 W 6th St,Los Angeles,CA,90020
500,8MaRuBRfR80wN3civ6PpWQ,All Time,2040 Hillhurst Ave,Los Angeles,CA,90027
501,U_r40GZhG6fUpbsFvnK2mg,Broken Shaker Los Angeles,416 West 8th St,Los Angeles,CA,90014
502,UlgUVYKpwvOL--0GrSVdfw,Simone,449 S Hewitt St,Los Angeles,CA,90013
503,HThfRNFgQSYEhI_QrMx9Rg,Alaska Seafood,4251 Beverly Blvd,Los Angeles,CA,90004
504,XRbyfQZ7nWwJCOjRC8EW-g,Ô Banh Mi,1997 Hyperion Ave,Los Angeles,CA,90027
505,hcUxpi--BTuVNEMttimC7Q,King Taco,2020 W Pico Blvd,Los Angeles,CA,90006
506,ITNAxP_RUZ_FCPFNt7pjmw,Earle's On Crenshaw,3864 Crenshaw Blvd,Los Angeles,CA,90008
507,U2xdaP7MkCzL5Qr7SgFXVg,Lemonade,626 N Larchmont Blvd,Los Angeles,CA,90004
508,520Wd4FU_DixBprFQQnnxg,Tacos Tumbras a Tomas,Grand Central Market Space A-5,Los Angeles,CA,90013
509,KN4dbEU1TFbRhehvi_xV0g,Cow Cafe,342 W Pico Blvd,Los Angeles,CA,90015
510,dOyEWOtr3h7kkyMQwWwDFA,Ohana Superette,2852 W Sunset Blvd,Los Angeles,CA,90026
511,WPe9r4_b_ByxM-c3OhbDew,Il Capriccio on Vermont,1757 N Vermont Ave,Los Angeles,CA,90027
512,yZDK0XtLi0JeE2Dho1boIw,Cattle & Claw,8555 Beverly Blvd,Los Angeles,CA,90048
513,_FYGof7wh6AsZW_L_wuV8g,Carnitas Michoacan,1901 N Broadway,Los Angeles,CA,90031
514,HMZkNopx2zDg21tNVVDpiw,Tsujita LA Artisan Noodle Annex,2050 Sawtelle Blvd,Los Angeles,CA,90025
515,-dqkgjUUIDOb4V1dC4X70A,Ramen Hood,317 S Broadway,Los Angeles,CA,90013
516,84PmY6fwOx9Z33aX3sb_GQ,Electric Karma,8222 1/2 W 3rd St,Los Angeles,CA,90048
517,egU533_tWCiKYA_2vVGFsw,Village Pizzeria,131 N Larchmont Blvd,Los Angeles,CA,90004
518,Bd2IDpf3fKugD6BMXGTLUQ,The Black Fig,960 E 3rd St,Los Angeles,CA,90013
519,3Tfkr7eD4wvd_zr7IhBCwQ,Velvet Margarita,1612 N Cahuenga Blvd,Los Angeles,CA,90028
520,AIQpwyjNV3VdsGMjf1WNcg,Men Oh Tokushima Ramen,456 E 2nd St,Los Angeles,CA,90012
521,kWS6X7iJiLQKYOsDWgY8pQ,Burgerim,5001 Melrose Ave,Los Angeles,CA,90038
522,FQT1DQVA0QwhEDs2i-ZNDA,Monarca Pasta & Grill,2703 S Vermont Ave,Los Angeles,CA,90007
523,4yS760klyp_nyQwDcwWQIg,Oakobing,3300 W 6th St,Los Angeles,CA,90020
524,vhtr27Dxcau8JJ2kSgMJnA,Tasty Grill,301 S Western Ave,Los Angeles,CA,90020
525,Z6NectFobqlT3TOL1SehQg,Hash,12121 Bluff Creek Dr,Los Angeles,CA,90094
526,deNv1JsKRCgTdMOIcGYUBQ,Crumbs & Whiskers | A Cat Cafe Experience.,7924 Melrose Ave,Los Angeles,CA,90048
527,x8qmT_2Wt8R8KdOKofc1dA,Round Table Grill,3465 W 6th St,Los Angeles,CA,90020
528,v5JaR9R_p0dnyDtefjtF9A,Blackbird Pizza Shop,7459 Melrose Ave,Los Angeles,CA,90046
529,HrurjBU0l19vzBP86D_YTQ,The Trails,2333 Fern Dell Dr,Los Angeles,CA,90027
530,gol97typwuGAaRvklK5viA,The Cheesecake Factory,189 The Grove Dr,Los Angeles,CA,90036
531,2FVgcrxGbKccXXtcNBrjpg,Good Greek Grill,6363 Yucca St,Los Angeles,CA,90028
532,yyTLKAplUF89xydeB2bZWQ,Mezcalero,510 S Broadway,Los Angeles,CA,90013
533,NGdii-6GhGFUwD6HXEeGtg,Murakami Sushi,7160 Melrose Ave,Los Angeles,CA,90046
534,1UsZH1F7pwYqpxxXt1AKEQ,Sinopot Hot Pot 嗨锅,3785 Wilshire Blvd,Los Angeles,CA,90010
535,uMY7uC9m7HxRNAZGkjtdbA,Bossa Nova on Sunset,7181 W Sunset Blvd,Los Angeles,CA,90046
536,n-blFV1qLtLlQVJkhKX6MA,Sunday Morning,7201 Melrose Ave,Los Angeles,CA,90046
537,4naS3jOXLWXpAGOHlldeSQ,Kogi Taqueria,3500 Overland Ave,Los Angeles,CA,90034
538,spY_z1Dn1RFw_5yrbK6k5A,Yuchun,698 S Vermont Ave,Los Angeles,CA,90005
539,cy4gzhbr1C-zG2K-BdxH6g,The Pie Hole,6314 Hollywood Blvd,Los Angeles,CA,90028
540,0-a1JBlC7fZf0eVGgIUVhg,Broken Spanish,1050 S Flower St,Los Angeles,CA,90015
541,KUdxMY4zGDWicld9-Hmfig,Chef Kang Food Rehab,401 S Vermont Ave,Los Angeles,CA,90020
542,l96wBEMriHr7RJJM_voP7A,6th & La Brea Brewery & Restaurant,600 S La Brea Ave,Los Angeles,CA,90036
543,ZV1cQKQfJBaG0Btm1-CArQ,Belizean Paradise,1271 S La Brea Ave,Los Angeles,CA,90019
544,y3JFivchVHsgZSarLx55FA,Tipsy Tails Hollywood,6325 Hollywood Blvd,Los Angeles,CA,90028
545,nLK8UtoP5kScZYUY2qRAQw,Doshi Fish,3636 W Olympic Blvd,Los Angeles,CA,90019
546,aLuNzjN_IYFcXGi37Jq7WQ,Ma'am Sir,4330 Sunset Blvd,Los Angeles,CA,90029
547,8AMcVu62TQkLDuQP4jVNHQ,Pho 24,3450 W 6th St,Los Angeles,CA,90020
548,uPeWc6p4KLMHRve4OlLVEg,Cafe Creole,3650 W Martin Luther King Jr Blvd,Los Angeles,CA,90008
549,B7hN8d0qkE9mPw9LVcomuQ,Sticky Rice,317 S Broadway,Los Angeles,CA,90013
550,o5X0ijLaZbW7OZA5GcOvxg,Tropicalia Brazilian Grill,1966 Hillhurst Ave,Los Angeles,CA,90027
551,7wsEe4InvZwzigOnLlL6PQ,Dōnatsu,330 E 2nd St,Los Angeles,CA,90012
552,S1JEJ_abdhiV5tZ89ENPfQ,Panini Kabob Grill,600 W 9th St,Los Angeles,CA,90015
553,Vrzv1ge6IPtvKxls_GUnOQ,Wafflejack,6801 Hollywood Blvd,Los Angeles,CA,90028
554,9qDA6kGLxuZ0bOSYWet4uA,Botanica Restaurant & Market,1620 Silver Lake Blvd,Los Angeles,CA,90026
555,nxUUYDgQ-VWwjaxmRGJBkg,Spitz - Little Tokyo,371 E 2nd St,Los Angeles,CA,90012
556,9RB_-5aXR9HMdrpcA6L5WQ,Chin's Hawaiian Teriyaki Bbq Chicken,1708 S Western Ave,Los Angeles,CA,90006
557,_sN1bF7C19hnwUryOwSgFQ,Rikas Peruvian Cuisine,3553 W 3rd St,Los Angeles,CA,90020
558,SNlf3YpKkDG-e4R9jkwLhA,Guerrilla Tacos,2000 E 7th St,Los Angeles,CA,90021
559,KF0iy1GeuDYm_1EyyVD6ig,TAO Asian Bistro,6421 Selma Ave,Los Angeles,CA,90028
560,5imw7dSuSB4HmUMrZep1lg,Qin West Noodle,727 N Broadway,Los Angeles,CA,90012
561,_QatjYmVjepKoE2gHbSAwA,Beverly Soon Tofu Restaurant,2717 W Olympic Blvd,Los Angeles,CA,90006
562,NdLlLE6bv61KiVBtdds2lA,The Empanada Factory,2513 S Robertson Blvd,Los Angeles,CA,90034
563,w1l8APyEMoPKe6hHHMDEnA,Palm Grove Ethiopian Restaurant,1905 S Western Ave,Los Angeles,CA,90018
564,34EtzYXSKlbAWY8aLZD2kg,Boolieya,3959 Wilshire Blvd,Los Angeles,CA,90010
565,hfNl1MDTeGxuEBe7PN9_xg,Thank You For Coming,3416 Glendale Blvd,Los Angeles,CA,90039
566,jJhbNZqBLbLK4IRVuoIgyg,Melody,751 N Virgil Ave,Los Angeles,CA,90029
567,cJ_-7MywlZgLvvsS4u7jaQ,Tam O'Shanter,2980 Los Feliz Blvd,Los Angeles,CA,90039
568,28HzNE8LVC3KZ1jKvAc8hg,Tocaya - DTLA,801 S Olive St,Los Angeles,CA,90014
569,yleRHa5Voh4xJ5AW1-7RZQ,The Main Course,10509 W Pico Blvd,Los Angeles,CA,90064
570,f2V2OzCi0eNe9I-XnJOuwg,La Numero Uno,1247 Vine St,Los Angeles,CA,90038
571,T5XzED-R0r9KJz74EcHUNg,Sapp Coffee Shop,5183 Hollywood Blvd,Los Angeles,CA,90027
572,x4k-csqCwofptVyYSIxtXw,California Chicken Cafe,2005 Westwood Blvd,Los Angeles,CA,90025
573,C9rLh3Mp-agjne7JWv8KLA,Polka Polish Restaurant,4112 Verdugo Rd,Los Angeles,CA,90065
574,Ij1S9QX1QWDVwJLBcWiejQ,Happy Taco,1309 S Hoover St,Los Angeles,CA,90006
575,3OJt-Xj45NfCCFwaeKMaeg,Luv2Eat Thai Bistro,6660 W Sunset Blvd,Los Angeles,CA,90028
576,7e9oi3zq_6pP_LU9YPEXLg,Rao's - Los Angeles,1006 Seward St,Los Angeles,CA,90038
577,MtvPWC-Xy8dbyrxAaqsA2w,Beetle House LA,6356 Hollywood Blvd,Los Angeles,CA,90028
578,3n3D8WCVKDgMLYlL0Tv8Tg,Wood & Vine,6280 Hollywood Blvd,Los Angeles,CA,90028
579,c6tS63dKNNXd2n_dluGWAw,Sunny Blue,12608A Washington Blvd,Los Angeles,CA,90066
580,irWMpwJ1JFx5ih4TTQVo6Q,The Edmon,5168 Melrose Ave,Los Angeles,CA,90038
581,j3zbQyVS9C9SwzZGzAGAgg,Cardamom Indian cuisine,7233 Beverly Blvd,Los Angeles,CA,90036
582,yTnnNiL-Q5IB966ddWvqPw,Singapore's Banana Leaf,6333 W 3rd St,Los Angeles,CA,90036
583,8RXJiao_twvDmzDAqwkw6w,KOBUNGA,929 W Jefferson Blvd,Los Angeles,CA,90089
584,k2dhvRV0gtPoDWLuH2OMTQ,ACA Grill,3062 W 8th St,Los Angeles,CA,90005
585,bJeMe365G76fcnFqBHxppg,Full Moon House,960 N Hill St,Los Angeles,CA,90012
586,5K-jAlFfFX1nnaeT8zsufw,Pollo a La Brasa Western,764 S Western Ave,Los Angeles,CA,90005
587,YYKK5pDAWQimcHzOz-7nug,Rossoblu,1124 San Julian St,Los Angeles,CA,90015
588,hPevQl0mBhTFUXZ0baMq0Q,RiceBox,541 S Spring St,Los Angeles,CA,90013
589,BvQqye2Qs18Ig1Qr95f-fA,AL Basch Chicken,7311 W Sunset Blvd,Los Angeles,CA,90046
590,mufwX7seOeLaWD6N6ScYSg,Pho Hoa Vietnamese Restaurant,818 N Spring St,Los Angeles,CA,90012
591,jUUL15bDuUwwX73Mqivisg,Poke Me,310 S La Brea Ave,Los Angeles,CA,90036
592,_DvLBgqSrAPi74NNGN0-tw,A-Frame,12565 Washington Blvd,Los Angeles,CA,90066
593,Y6fIDAmbM7cvnZsbOWFb-w,Tokyo Hamburg,600 S New Hampshire Ave,Los Angeles,CA,90005
594,8polKN4I6fJx1t8pPxogVw,Bacari W. Adams,2308 S Union Ave,Los Angeles,CA,90007
595,FoBImsch8xY3ANNGWL32Bw,Rappahannock Oyster Bar - DTLA,787 S Alameda St,Los Angeles,CA,90021
596,2TMvblZrRMW_mKcyHZ5ldA,La Chuperia,1145 N Mission Rd,Los Angeles,CA,90033
597,RDwHBmnz1dbPw-v2y30WCg,Mikkeller DTLA,330 W Olympic Blvd,Los Angeles,CA,90015
598,fEFkf7jYjaWfyil0DjOuIw,Messob Ethiopian Restaurant,1041 S Fairfax Ave,Los Angeles,CA,90019
599,6zofWBRT3URXShIktlVAxg,Karl Strauss Brewing Company,600 Wilshire Blvd,Los Angeles,CA,90017
600,BonZ748EKm8pwtVQalFpYQ,Jacks N Joe,2498 S Figueroa St,Los Angeles,CA,90007
601,FW7LQTjlwi2e0e3gkiF_Gw,Stella Barra Pizzeria,6372 W Sunset Blvd,Los Angeles,CA,90028
602,0z01cdjtl54ksjzKUMgd_w,Shintaro Sushi,1900 N Highland Ave,Los Angeles,CA,90068
603,mQMCi60kT3UeVuDiOckG_w,Tracey's Belizean Restaurant,3810 S Western Ave,Los Angeles,CA,90062
604,8ewoDluFpb8kJ49s0-aQxQ,Healthy Zone Jook Hyang,3177 W Olympic Blvd,Los Angeles,CA,90006
605,uMar62it3cUFxPRuXbYoMw,Mel's Fish Shack,4524 W Jefferson Blvd,Los Angeles,CA,90016
606,zLEV5J2HmKHocbPZONGJAA,Spartina,7505 Melrose Ave,Los Angeles,CA,90046
607,encr0DAQTk026tnpBi7dfQ,Chicharroland,4714 S Main St,Los Angeles,CA,90037
608,chHgp2uVeVZkjn0H9ZaOGQ,Cafe Brasil,11736 W Washington Blvd,Los Angeles,CA,90066
609,l35t9glgHHOjR5dMyUqs6Q,Vromage,7988 W Sunset Blvd,Los Angeles,CA,90046
610,S8rXjn2aMaoONx468cWRag,Jang Choong Dong JokBal,2716 W Olympic Blvd,Los Angeles,CA,90006
611,EbC1SQGTGgYaVyp5F4p6RQ,Boogie McGee's Bayou Smokehouse BBQ,3377 Wilshire Blvd,Los Angeles,CA,90010
612,iOuz4WzpUaG6MOajq4Hi2A,Peking Tavern,806 S Spring St,Los Angeles,CA,90014
613,2M00ZcU0C31FIvgHQuGytA,The Kitchen At Westwood,1510 Westwood Blvd,Los Angeles,CA,90024
614,euIu-4rVEKrsAMMC8A0vZQ,Fogo de Chão Brazilian Steakhouse,800 S Figueroa St,Los Angeles,CA,90017
615,HLLICaNVSR0FJKIN80LrOg,Black Hogg Sandwiches,2852 Sunset Blvd,Los Angeles,CA,90026
616,ieKcxY-IptaHIwxxAq5cMA,Prospect Gourmand,272 S La Cienega Blvd,Beverly Hills,CA,90211
617,KqwhSnivUjQF354WCv1gDQ,Foodlab,7253 Santa Monica Blvd,Los Angeles,CA,90046
618,qyGR1NvNZ4-17BpJ9LGMxA,BIBIBOP Asian Grill,6333 Sunset Blvd,Los Angeles,CA,90028
619,n47wKEAeTh86dqiQOLrigQ,Gam Ja Gol,3003 W Olympic Blvd,Los Angeles,CA,90006
620,_8l5IWTuweCLHQlm25xgRg,Somni,465 S La Cienega Blvd,Los Angeles,CA,90048
621,JhIMtGj_a9RRR3KupXYKoA,Fiona,339 N Fairfax Ave,Los Angeles,CA,90036
622,9OqeSaKmGjo2xhvcSI-Xog,Badmaash - Fairfax,418 N Fairfax Ave,Los Angeles,CA,90036
623,YCEgBqClpWXQ3leoAhWjoA,Sushi Hon,3929 W Olympic Blvd,Los Angeles,CA,90019
624,8Qzn5u9FotudVId86mu4vg,The Little Easy,216 W 5th St,Los Angeles,CA,90013
625,yMJpttJxzObbbRh0ekawmQ,Birrieria Los Gonzalez,2524 Maple Ave,Los Angeles,CA,90011
626,5JSRwc90j0V226stp1zWDA,Pomodoro Trattoria,1393 Westwood Blvd,Los Angeles,CA,90024
627,0uRqBRs-zWw95G8bxR78jg,Mapo Galbi,1008 S St Andrews Pl,Los Angeles,CA,90019
628,v5_dNxHg1F5Y-h_nSeLVow,Kabob By Faraj Restaurant & Kosher Meat Market,8680 W Pico Blvd,Los Angeles,CA,90035
629,5oBl4waF3RT2b218OFTL4A,Harold & Belle's,2920 W Jefferson Blvd,Los Angeles,CA,90018
630,kLMwIMioGwempP4oCuQp0A,Aloha Café,410 E 2nd St,Los Angeles,CA,90012
631,fhtBoSbJC45QQ4rYrFHj6Q,Cliff's Edge,3626 W Sunset Blvd,Los Angeles,CA,90026
632,ywH0noW7QvSK5pE7W4QgJg,Izakaya Gazen,362 E 1st St,Los Angeles,CA,90012
633,izNn-d8i3Md27D_e2alI-w,Tengoku Ramen Bar,539 S Western Ave,Los Angeles,CA,90020
634,eqUh2lbm6_01DptYsEs57Q,Franco's,8000 W Sunset Blvd,Los Angeles,CA,90046
635,eCnYyV6biWxm1NQJTQ0Wig,Pailin Thai Cuisine,5621 Hollywood Blvd,Los Angeles,CA,90028
636,FIhj_380IbJsHolPuNzk2A,Paros Chicken,1117 N Hobart Blvd,Los Angeles,CA,90029
637,eQ-OpJtbcQY90V7-A7Zpow,Pao Jao Dumpling House,928 S Western Ave,Los Angeles,CA,90006
638,goOpupvfJhbzZdQb4vXeWg,Humble Potato,8321 Lincoln Blvd,Los Angeles,CA,90045
639,alBO2iwK6ilrykLvtSlNtg,Sichuan Impression,11057 Santa Monica Blvd,Los Angeles,CA,90025
640,tjsgOJRU4Al40LS8qTX56w,Pho Thai Town,5136 Hollywood Blvd,Los Angeles,CA,90027
641,7sZnRtSBZcrScdtE-gWyPw,Chi Spacca,6610 Melrose Ave,Los Angeles,CA,90038
642,fHd8nRgoSpn1_dS9HP6fiw,Powerplant Superfood Cafe,5671 W Pico Blvd,Los Angeles,CA,90019
643,Bzux14VeAPzlNTjc9dS7NQ,L & E Oyster Bar,1637 Silver Lake Blvd,Los Angeles,CA,90026
644,lhjyWpMMbysXxS-6ZJ9QNg,Tacos Tu Madre,1945 1/2 Westwood Blvd,Los Angeles,CA,90025
645,CP0ICg1dZqEOt3UtNapjKg,Au Lac,710 W 1st St,Los Angeles,CA,90012
646,dQI2N7qVsjrQ4BxnyR0pHg,Wahlburgers,835 W Jefferson Blvd,Los Angeles,CA,90007
647,SREXeeGWWQwKP54fCljwZg,Monsieur Marcel,6333 W 3rd St,Los Angeles,CA,90036
648,-XTzS9ljfA6iNXziMNBBqA,Creperie Le Terrace,1102 S Western Ave,Los Angeles,CA,90006
649,Qji05C15SOCWLDYG0msfRQ,The Dog Cafe,240 N Virgil Ave,Los Angeles,CA,90004
650,En6b8WvIkaOZq0-NkiiWTA,Kaban Persian Restaurant,3250 Cahuenga Blvd W,Los Angeles,CA,90068
651,zC1iJsl9VlIaRnEBm9yDKQ,The Backhouse,10915 W Pico Blvd,Los Angeles,CA,90064
652,oZb8ELhulgbxfVAU5FX25A,D's Dubai Sauce,6510 Hollywood Blvd,Los Angeles,CA,90028
653,Kcia8sHINWxqHjThJRAUkw,Anzu Japanese Gourmet,11270 La Grange Ave,Los Angeles,CA,90025
654,4Ttfvrc3S3xW1sxHF-oFPg,El Paseo Inn,11 E Olvera St,Los Angeles,CA,90012
655,bHkfCBRQfAd60luOgRxkjw,Cilantro Lime,934 S Los Angeles St,Los Angeles,CA,90015
656,py2dW-WLfw8RfT4lkYX6pA,Hamasaku,11043 Santa Monica Blvd,Los Angeles,CA,90025
657,5dOPtshmBbC_3KvCQVGFZg,Bento Man,1500 S Western Ave,Los Angeles,CA,90006
658,25fipMHUHLZTq0sVQINi5g,The Front Yard,4222 Vineland Ave,North Hollywood,CA,91602
659,_Ud0KZCY_-t_Kl8rDK-Zxg,Birrieria Don Boni,1845 E 1st St,Los Angeles,CA,90033
660,6bqxHEgw3YFzfKqxYw6yaQ,Kitchen Sooda,618 S Serrano Ave,Los Angeles,CA,90005
661,9P8aaRNTsY03FgTWuNMcxQ,Handi Kabab House,360 S Alvarado St,Los Angeles,CA,90057
662,oqLsYZSS_CFXfmh0yZDNdQ,E.A.K. Ramen,7455 Melrose Ave,Los Angeles,CA,90046
663,iVyVs8L6xTtZZb1k050Ajg,Atrium,1816 - A N Vermont Ave,Los Angeles,CA,90027
664,ialCeqYzy-N5NujJq1GikA,Wako Donkasu,3377 Wilshire Blvd,Los Angeles,CA,90010
665,2olt6pTua1gxBTv_uVLp8A,Madera Kitchen,1835 N Cahuenga Blvd,Los Angeles,CA,90028
666,B-JY4uOniEo9WHbz1i8mig,Taste on Melrose,8454 Melrose Ave,West Hollywood,CA,90069
667,1toW0p9uJQMEayWlUDz4WQ,Fleming's Prime Steakhouse & Wine Bar,800 W Olympic Blvd,Los Angeles,CA,90015
668,6DEuqc82zAMe-C4MOLqHcQ,Simply Wholesome,4508 W Slauson Ave,Los Angeles,CA,90043
669,Z3Vbl79nkhkwZ3D2JYAjAg,Crawford's,2616 Beverly Blvd,Los Angeles,CA,90057
670,SGr-W_g4ecqkkEweCc1RVg,BAR Ama,118 W 4th St,Los Angeles,CA,90013
671,Yit4Cis7BNRt-X_qTTccLQ,Yangmani,2561 W Olympic Blvd,Los Angeles,CA,90006
672,Bjkw0oRy1STaCJmv5EZ0Mw,Sawyer,3709 W Sunset Blvd,Los Angeles,CA,90026
673,yOMt0bz7dX_mdwjXfRYWOA,Bon Ga Ginseng Chicken Soup,3516 W8th St,Los Angeles,CA,90005
674,cYC1Yv_iRgfbD_6rSuLXCA,Kimukatsu,2121 Sawtelle Blvd,Los Angeles,CA,90025
675,4AeAYRRnq2eWFdrtDMbgdg,Yellow House Cafe,234 S Oxford Ave,Los Angeles,CA,90004
676,4EAaHAf2hny208rgA0eB-g,Burger Lounge,217 N Larchmont Blvd,Los Angeles,CA,90004
677,HN11c9eMQZs6rcYhDrRW4w,33 Taps Silver Lake,3725 W Sunset Blvd,Los Angeles,CA,90026
678,JicwLizIrqIvzn7LEBpHlQ,Wako Donkasu,2904 W Olympic Blvd,Los Angeles,CA,90006
679,UWCm-SypBInYPnu06M6bbQ,Antequera De Oaxaca,5200 Melrose Ave,Los Angeles,CA,90038
680,4GBnXG__jDRwi9bYs7fnvw,Taylor's Steakhouse,3361 W 8th St,Los Angeles,CA,90005
681,P_2Z_Wwk2Xtepobtxxsa6A,Din Tai Fung,177 Caruso Ave,Glendale,CA,91210
682,J5VIIA_KdB33zQR8vgo5MA,Gus's Drive In,1657 W 3rd St,Los Angeles,CA,90017
683,XOweKt7rmomkSaBjjY17dg,Ombu Grill,400 S Western Ave,Los Angeles,CA,90020
684,YpM5qRwt8uwC77WNZtGIfA,Muraya,125 N Larchmont Blvd,Los Angeles,CA,90004
685,x6s_mTZmrwQ64KvwtGt5Vw,The Buffalo Spot,3286 W Slauson Ave,Los Angeles,CA,90043
686,Q-D5cCogjnTv7ELUI-Cz8Q,Simply Pho You,698 S Vermont Ave,Los Angeles,CA,90005
687,zbO-Y5Xi2UbtcRaYysGhmQ,La Brea Ramen Bar,850 S La Brea Ave,Los Angeles,CA,90036
688,FBRxoQSWtziiU_A5tscVGA,La Barca Restaurant,2414 S Vermont Ave,Los Angeles,CA,90007
689,7FI5FtEVMb6LNoHYTYbncA,Wi Korean BBQ,1101 S Vermont Ave,Los Angeles,CA,90006
690,1u9ZlJF5txRS1KSQ6r8-RA,Izakaya Mi Young,3680 Wilshire Blvd,Los Angeles,CA,90010
691,2toCl4bQ-91-1aTkYynAcQ,Love Baked Wings,7350 Melrose Ave,Los Angeles,CA,90046
692,LdJhyKGjASst5TbcbStnJA,JJUKKU JJUKKU BBQ,3377 Wilshire Blvd,Los Angeles,CA,90010
693,IUpmqC-OOzJZDKE69Z4Rbg,Marugame Udon,8500 Beverly Blvd,Los Angeles,CA,90048
694,-fd4YzSvV0SWqZrTP-Md0g,Secret IZT,301 S Western Ave,Los Angeles,CA,90020
695,0mDwFahV2qgGYM2sL1m0Pw,Meals by Genet,1053 S Fairfax Ave,Los Angeles,CA,90019
696,d09ros9QhLRs9EgWbkkvvg,Caveman Kitchen,2215 S Vermont Ave,Los Angeles,CA,90007
697,pinUBw4QqnTUGLAbKA5o4g,Marouch Restaurant,4905 Santa Monica Blvd,Los Angeles,CA,90029
698,5z6YbJ0i3V16hCm31iHU_A,Saint Marc,10250 Santa Monica Blvd,Los Angeles,CA,90067
699,gntFYok0xBCXkEv52oOkBQ,Won Jo Kokerang Agurang,533 S Western Ave,Los Angeles,CA,90020
700,WPoyviCJpBfHpSxkLr0_1w,Pita Café,1976 South La Cienega Blvd,Los Angeles,CA,90034
701,SAowTowinOSZUBm2U7zggQ,Tommy's Original World Famous Hamburgers,2575 Beverly Blvd,Los Angeles,CA,90057
702,k7uDQ8CqreIA-Ez2v62-aQ,Star Night,3855 Wilshire Blvd,Los Angeles,CA,90010
703,ZtXe86gz0V-iVqYbBtDPFA,Hasiba,8532 Pico Blvd,Los Angeles,CA,90035
704,fwO7SDvDWiQ4yh1k2LvcyQ,Bubble U,843 N Broadway,Los Angeles,CA,90012
705,0KrITDshZGMnv1m7nunoZQ,Han Mi Jung,4100 W Pico Blvd,Los Angeles,CA,90019
706,zuP-XpL67tIHfV18KMqVbw,Byul Gobchang,3819 W 6th St,Los Angeles,CA,90020
707,UC_VJbyrGd7CcpeYy0uSfA,Easy's,8500 Beverly Blvd,Los Angeles,CA,90048
708,QGvu135f0LYW8XSQ9cYG7Q,Nam Won Gol,3623 W Pico Blvd,Los Angeles,CA,90019
709,dWoQPRhhHPBAssKJy9MpBw,KyoChon,3833 W 6th St,Los Angeles,CA,90020
710,eu5Xg5liaCSGPvXDhqmLaA,Wat Dong Moon Lek Noodle,4356 Fountain Ave,Los Angeles,CA,90029
711,TmSiqGPjd4ootNVwEG6H9g,Empanada's Place,3811 Sawtelle Blvd,Los Angeles,CA,90066
712,5W-9Iq_q3VXsB0nkA0TVrQ,Natraliart Jamaican Restaurant & Market,3426 W Washington Blvd,Los Angeles,CA,90018
713,dP37CRr-OfsAqFpt1VNcGw,Pizzeria Il Fico,310 S Robertson Blvd,Los Angeles,CA,90048
714,Su29UkrAhKaYyctbxrqrfQ,Almaza,8905 W Venice Blvd,Los Angeles,CA,90034
715,vz_AOpuvBu7g7b-jarHrkw,Katsu by Momota,4003 Wilshire Blvd,Los Angeles,CA,90010
716,fLgvqjXK-xVE-7bu_tniWw,Calibunga Fish Co,3500 Wilshire Blvd,Los Angeles,CA,90010
717,T1Bi3NRAmLGbmNg82NaKmQ,Tart Restaurant,115 S Fairfax Ave,Los Angeles,CA,90036
718,lmULf7Q8FmxB4me-SeWXlw,SUGARFISH by sushi nozawa,6115 W Sunset Blvd,Los Angeles,CA,90028
719,gyWKvlHHI1lkcKhJKXlmuw,Belcampo Burger LA/West Third,8053 W 3rd St,Los Angeles,CA,90048
720,6XYHpIJrE1YRNOGnScp0gA,Ham Ji Park,4135 W Pico Blvd,Los Angeles,CA,90019
721,hb2Oa6F8n70XlDxC8eRIFg,Meat Love Korean BBQ,1145 S Western Ave,Los Angeles,CA,90006
722,NYy7ps3vKR4OzsysdNCy9w,Los Tres Cochinitos Restaurant,3111 N Main St,Los Angeles,CA,90031
723,ivnX_tNhngBvdepsQFfGIw,Tacos Los Poblanos,5821 Avalon Blvd,Los Angeles,CA,90011
724,rHjCg6AvI3xTBHk59SzFYg,Paley,6115 Sunset Blvd,Los Angeles,CA,90028
725,m_xAjTKjvcyqd-jBs8A2VA,Sushi Fumi,359 N La Cienega Blvd,Los Angeles,CA,90048
726,dUPaip9XyZ0LZUpl3K6Ncg,Momed Atwater Village,3245 Casitas Ave,Los Angeles,CA,90039
727,quDRbtVyZHsvVeEMe0K6zw,Manpuku Japanese Yakiniku Dining,8486 W 3rd St,Los Angeles,CA,90048
728,gHjqZaWcMjkvloNjACqLAg,Sushi Zo,334 S Main St,Los Angeles,CA,90013
729,DwvI4fJlWHgDh1TrxGqFHQ,Auburn,6703 Melrose Ave,Los Angeles,CA,90038
730,RJI_F3zgJMtmvKZiYfrJMg,Pier69 AYCE SUSHI,3377 Wilshire Blvd,Los Angeles,CA,90010
731,_RHH6VPpKuYRoqV0JyHAqg,Okipoki,507 S Spring St,Los Angeles,CA,90013
732,OF9HdZ2TMILGQUIO0VxLwg,sweetgreen,6115 W Sunset Blvd,Los Angeles,CA,90028
733,QKNCjonKZ8OkfbCD_j7JHA,La Boucherie,900 Wilshire Blvd,Los Angeles,CA,90017
734,gEZzvxvK0VtlTXQKelsSxw,Waku Waku Sakebar,1511 N Cahuenga Blvd,Los Angeles,CA,90028
735,c2QZmOUhNm8rB1L-XvCvcQ,Pour Haus Wine Bar,1820 Industrial St,Los Angeles,CA,90021
736,clajFGFea-zmi-CzZgEL8A,Kues Restaurant,800 W 6th St,Los Angeles,CA,90017
737,lfYZj35tFbnHwgLFyPTKqQ,La Cocinita,4379 W Pico Blvd,Los Angeles,CA,90019
738,KQ8surQGsdsUpjLoVMUW-A,Kiku Sushi,246 N Larchmont Blvd,Los Angeles,CA,90004
739,WWQsHGIFUkNQF6Uaj4vXCw,Hong Kong Ban Jum 0410 / Paik's Noodle,3470 W 6th St,Los Angeles,CA,90020
740,WQqFyF6FxTVRojoSN4Nljw,Jae Bu Do,474 N Western,Los Angeles,CA,90004
741,Uciy4a2wODubfq24noRRag,Little Kingston Jamaican Restaurant,4716 W Slauson Ave,Los Angeles,CA,90056
742,y2eWXL2qbTW8tXyrEsfEqQ,Bacari W 3rd,8030 3/4 W 3rd St,Los Angeles,CA,90048
743,Q-7u7kPhVeGYV8DdKbj02A,Isaan Station Thai Street Food,125 N Western Ave,Los Angeles,CA,90004
744,mIfBPK5arg4jAtwBytioZg,Froma on Melrose,7960 Melrose Ave,Los Angeles,CA,90046
745,et-BaxAfGLpTufqfimbPUg,Mountain Cafe,3470 W 6th St,Los Angeles,CA,90020
746,fCzDsLfL5yvlGragBwV40A,Pink Taco,8225 W Sunset Blvd,Los Angeles,CA,90046
747,odzvOMZgp0OVYGp9sDS3qQ,The Apple Pan,10801 W Pico Blvd,Los Angeles,CA,90064
748,gvOwLa57365ElddwcUhIyw,Oo-Kook Korean BBQ,3385 W 8th St,Los Angeles,CA,90005
749,lAmpZfYijXT5fcc1Zqy4Nw,Zankou Chicken,1716 S Sepulveda Blvd,Los Angeles,CA,90025
750,E-1cbKvH1nv9sKxrFIM1bg,Te'Kila,13817 Ventura Blvd,Los Angeles,CA,91423
751,WCm7p2IlHG9_eEWNjiKAJQ,Pho Legend,209 S Vermont Ave,Los Angeles,CA,90004
752,xUDJy8BuzZou2BADrkZBPw,The Parlor,7250 Melrose Ave,Los Angeles,CA,90046
753,u5v6CeUG286gUP1bmGs9Qw,Shin Chon Seolnongtang,3033 W 6th St,Los Angeles,CA,90020
754,_5TyYb39hhvo9v7seB7V6A,Souffles,3801 W 6th St,Los Angeles,CA,90020
755,XjmMhxMTwm6NdxHiLlKC0Q,Coconut's Fish Cafe,809 S Hill St,Los Angeles,CA,90014
756,Jd_1ZFglF0Kqqp0WGHyPeg,Jesse Boy,6254 Santa Monica Blvd,Los Angeles,CA,90038
757,Fcxm2Wnz8lLDi6doGcAMTw,Taix French Restaurant,1911 W Sunset Blvd,Los Angeles,CA,90026
758,ma3MRxILFJZW9Ffr3CkAcQ,Mister O's,11838 Ventura Blvd,Los Angeles,CA,91604
759,ubAiG5pgaQazJpoFHfViMg,Birds Rotisserie Chicken Cafe & Bar,5925 Franklin Ave,Los Angeles,CA,90028
760,ZxFQnp-PidPRTf23Ss_ecA,Alchemist Coffee Project,698 S Vermont Ave,Los Angeles,CA,90005
761,wj6x4qDuTwjZGH7jdPLr5A,Hakata Ikkousha,368 E 2nd St,Los Angeles,CA,90012
762,ucRSCJw-2vzD8QrPYXcdYA,The Potato Sack,3068 W 8th St,Los Angeles,CA,90005
763,5MORxFcPj3u1D9Jp1AZj4A,Indimex Eats,1106 N Cahuenga Blvd,Los Angeles,CA,90038
764,vu8S4ESHmqWnoVT80lbnUg,Umeda,6623 Melrose Ave,Los Angeles,CA,90038
765,lYfTKG3uhA5m4coAqWu4ng,Jaragua,4493 Beverly Blvd,Los Angeles,CA,90004
766,eIip70AtYPjJsC4kh1uTjg,Neri's,3377 Wilshire Blvd,Los Angeles,CA,90010
767,QmkcjISaVPchFil1BTxrtQ,El Flamin' Taco,505 S Vermont Ave,Los Angeles,CA,90020
768,pxg3VJKR9sA7cJqgXFTrSw,Dollar Hits,2422 W Temple St,Los Angeles,CA,90026
769,SC8JygWEEGXCmykQrfdHzg,Natalie Peruvian Seafood Restaurant,5759 Hollywood Blvd,Los Angeles,CA,90028
770,VKOiEMaDnR41oA3Dw0mosg,SUGARFISH by sushi nozawa,101 S La Brea,Los Angeles,CA,90036
771,3dmkjDqnsp__V5kxsq6rOA,Post & Beam,3767 Santa Rosalia Dr,Los Angeles,CA,90008
772,NffHWFzlhlsPvl06guR2gQ,Mohawk Bend,2141 W Sunset Blvd,Los Angeles,CA,90026
773,xPpCIt9Qes6vdXRum03g_A,Won Kok Restaurant,210 Alpine St,Los Angeles,CA,90012
774,LjFzKhP13GS6_CRM0HkEVg,Flavors of Thai,1275 S Union Ave,Los Angeles,CA,90015
775,2NTJmVo6Smp82PmrH83mlQ,Nightshade,923 E 3rd St,Los Angeles,CA,90013
776,Trd_Aixg5bTE09mkoSTmEA,Bourgeois Pig,5931 Franklin Ave,Los Angeles,CA,90028
777,jKemmdHoBs20go5j6AQpDw,Southland Beer,740 S Western Ave,Los Angeles,CA,90005
778,SUidZpY-hyZhhNIhQYsboQ,Chakan Sul Lung Tang,543 S Western Ave,Los Angeles,CA,90020
779,kDMsnq59lJAjMX1baGJPEA,Kanpai Japanese Sushi Bar & Grill,8325 Lincoln Blvd,Los Angeles,CA,90045
780,5zYBoDGqO__fe5TYs6JapA,New Kamara,709 N Hill St,Los Angeles,CA,90012
781,7Oi_8YdLTouxhKx3vBIR8A,Falafel-Arax,5101 Santa Monica Blvd,Los Angeles,CA,90029
782,KQZ8w5zpwzQIKKW9nfD9Bg,Frogtowns Gourmet Tacos,2853 Marsh St,Los Angeles,CA,90039
783,lE0ceQRIUrhvfUE8Pg9sXw,SUGARFISH by sushi nozawa,600 W 7th St,Los Angeles,CA,90017
784,2l9leXGEP_HRlW5GI92hFQ,Green Table Cafe,5998 W Pico Blvd,Los Angeles,CA,90035
785,uqBz7WNJRFjeJ-lldaiZEg,Wiki Poki,3438 Wilshire Blvd,Los Angeles,CA,90010
786,0t_E4EBkM9wDi1Ov46ifDg,O Jang Dong,4031 W 3rd St,Los Angeles,CA,90020
787,eoSG9gouwkL5M35KN-qB9w,Calle Tacos,6508 Hollywood Blvd,Los Angeles,CA,90028
788,PnQdOlJG3ErVz4W-HH-0Dg,Vespaio,225 S Grand Ave,Los Angeles,CA,90012
789,2cNmmr9yzdnNPppwExt9SQ,Eataly,10250 Santa Monica Blvd,Los Angeles,CA,90067
790,aEwYN9SQPi0BYnpe2-xUug,Urth Caffé- Melrose,8565 Melrose Ave,West Hollywood,CA,90069
791,aCuR8i99JFBOt5mRTnjk4A,Moa Bar,865 S Vermont Ave,Los Angeles,CA,90005
792,YBoP0kV88mcf5kQN0z5aFw,Hot Wings Cafe,7011 Melrose Ave,Los Angeles,CA,90038
793,MsicS49e2DWVmXICj3UNbQ,Mr. Sate,3456 Motor Ave,Los Angeles,CA,90034
794,AX-hRDB8zpIHKMix9VqB8g,H Cafe,3200 W 8th St,Los Angeles,CA,90005
795,H37qCF3x7UytLxVzuyV2pA,KKINI,859 S Western Ave,Los Angeles,CA,90005
796,aU1nbAv0n-UOIjZqQG4_qw,Atlacatl Restaurant,301 N Berendo St,Los Angeles,CA,90004
797,IG2qx8lU0qwMSDiL0QvUJA,No Name,432 N Fairfax Ave,Los Angeles,CA,90036
798,8aDkzc7pF1sog5btfm2_Rg,The Exchange Restaurant,416 West 8th St,Los Angeles,CA,90014
799,2a_V53w2gTBVdHv72sSWOg,El Comal,5465 Santa Monica Blvd,Los Angeles,CA,90029
800,abueL5elncoir635eJ_6YA,Necco,1929 Westwood Blvd,Los Angeles,CA,90025
801,2A18f5TRpM9fBL29byLiAA,Porto's Bakery & Cafe,315 N Brand Blvd,Glendale,CA,91203
802,s6xL22TfNCO_SJYNARDsNg,Ten Ramen,3324 W 6th St,Los Angeles,CA,90020
803,irUJOF_md685_qwEJkASKg,Seafood Express,2122 Beverly Blvd,Los Angeles,CA,90057
804,wjU7E9cMWgxZO9HNTn_tig,Everytable,1101 W 23rd St,Los Angeles,CA,90007
805,p1O9sw9QdnKn1cV2FEmmhw,Feng Mao Lamb Kebab,3901 W Olympic Blvd,Los Angeles,CA,90019
806,2t-FTIdnJC1gDjpims7oMQ,El Huero,3000 S Figueroa St,Los Angeles,CA,90007
807,VvaPZ02O9BJPfJy3loEx_w,Division 3,3329 Division St,Los Angeles,CA,90065
808,_0EORKOPsY5OlliTxOIxZw,Perfect Pita,6319 Hollywood Blvd,Los Angeles,CA,90028
809,x9uC3-5WythdfzoIOCK6iQ,MESSHALL,4500 Los Feliz Blvd,Los Angeles,CA,90027
810,WC2MLERL2ajYnif6djnvrg,Dong II Jang Restaurant,3455 W 8th St,Los Angeles,CA,90005
811,7kStq7VKl_I58y-ulZprvg,Welltopia,1716 N Highland Ave,Los Angeles,CA,90028
812,wyZWl-NqeTa38KloWu5jQw,Friends & Family,5150 Hollywood Blvd,Los Angeles,CA,90027
813,5o_XEyhLrgpB6Cmeqp9NGg,Casa La Doña,800 S Main St,Los Angeles,CA,90014
814,xJT5BdpKUyfenwWqtnoAww,Biergarten,206 N Western Ave,Los Angeles,CA,90004
815,N4pjPdbE4mM1THvdj5085w,Barbrix Restaurant & Wine Bar,2442 Hyperion Ave,Los Angeles,CA,90027
816,EzstcuNUD06nlmIx7wAWlg,New China Mongolian Bbq,4134 Crenshaw Blvd,Los Angeles,CA,90008
817,eqLHloMkfzwfLf8GA5wkXQ,Simply D'Licious,4641 W Washington Blvd,Los Angeles,CA,90016
818,oZG16DktFsm-Sl-KDSny_g,Katsu Sando Pop-Up,8162 Sunset Blvd,Los Angeles,CA,90046
819,q-HKatFNDEG44ADvIOVd8g,Inko Nito,225-227 S Garey St,Los Angeles,CA,90012
820,qrYyDAuC6eKfiSqgxbD8SA,Taqueria Tapatio No. 2,724 Vine St,Los Angeles,CA,90038
821,9d-yj1lHBwdSCPq2CbJ58A,Soregashi,6775 Santa Monica Blvd,Los Angeles,CA,90038
822,NQqA1cjS0rHn_96VwtnhMg,Good Goose Cafe,5210 Beverly Blvd,Los Angeles,CA,90004
823,Gv84tyU3vBvlHuHRVr8xmQ,Tom's Urban - LA Live,1011 S Figueroa St,Los Angeles,CA,90015
824,l3zhNdd0c5nSVCYWga-QPQ,Tray DTLA,100 S Main St,Los Angeles,CA,90012
825,8LdFAPdaWMg9sVRgmRv0NQ,Mama Shelter Rooftop Bar,6500 Selma Ave,Los Angeles,CA,90028
826,tyuhJgxBkk16mdYNXjwRIg,Salt's Cure,1155 N Highland Ave,Los Angeles,CA,90038
827,Qq-2CXHvSp3oy0KTIeF9KA,Bukchon,361 S Western Ave,Los Angeles,CA,90020
828,oZn4oaOKOI-HcUGecfG4Vw,The Penthouse at Mastro's,246 N Canon Dr,Beverly Hills,CA,90210
829,xIQU6U3WXtry00E-J9pRvg,Ttu Rak,125 N Western Ave,Los Angeles,CA,90004
830,ksrxBKCPd5MJqy0nsMzIIQ,Kitchen Story,2129 Sawtelle Blvd,Los Angeles,CA,90025
831,64A2TOfFpzEjadKng6-iqg,La Serenata de Garibaldi,10924 W Pico Blvd,Los Angeles,CA,90064
832,ly7L13OVHcSOm1JSuFwKwg,Electric Owl,1451 N Gardner St,Los Angeles,CA,90046
833,-t-eDIO78IGu95mjHk-_5w,To Soc Chon,356 S Western Ave,Los Angeles,CA,90020
834,0S1MoZHsV6eaFZnGn2Gu3g,Cafe Midi,148 S La Brea Ave,Los Angeles,CA,90036
835,H-Bxw0Mm9v6y4z1XXlce0Q,MulDaePo BBQ,808 S Western Ave,Los Angeles,CA,90005
836,ArqAzONXEq2AWvJ_II4a-A,My Vegan Gold,4319 W Sunset Blvd,Los Angeles,CA,90029
837,aUSK0oQR4ey0rFoDfCXaPw,Brera Ristorante,1331 E 6th St,Los Angeles,CA,90021
838,j7zBQ2dfP5QDVH8n33X9cg,Qin West Noodle,2520 S Figueroa St,Los Angeles,CA,90007
839,EEI-UkF6LwdCohI8y0b52g,Torelli Trattoria,7469 Melrose Ave,Los Angeles,CA,90046
840,zrA3Jo1oQZU7BvQyhKjdDg,Arts District Brewing Company,828 Traction Ave,Los Angeles,CA,90013
841,RhWxJBypexXfqW_BN8tB6A,The Faculty,707 N Heliotrope Dr,Los Angeles,CA,90029
842,bi0QB8hSLqOC9E61_aYGJQ,Toe Bang Cafe,3465 W 6th St,Los Angeles,CA,90020
843,qUcm3RdbwoTHmSNHV5lSCw,Pearl District Sherman Oaks,14015 Ventura Blvd,Los Angeles,CA,91423
844,qGTUg95aAy_1g_Es2pO7AA,Trois Mec,716 N Highland Ave,Los Angeles,CA,90038
845,2ptYhY0gxay6PwdCzAsTmw,Le Petit Greek,127 N Larchmont Blvd,Los Angeles,CA,90004
846,HTvyn97PloIn1kIGTIj-2A,Mexicali Taco & Co,702 N Figueroa St,Los Angeles,CA,90012
847,11LBUvDwOXnvv0oS2ukZVw,Bon Juk,3551 Wilshire Blvd,Los Angeles,CA,90010
848,u8jqR-meSTfBc_p5PeE-BQ,The Halal Guys,3432 Wilshire Blvd,Los Angeles,CA,90010
849,lq1Vy1ytvDuioPdvFSd4wA,The Kickin' Crab - Los Angeles,3767 Santa Rosalia Dr,Los Angeles,CA,90008
850,1pa6C6pBW5MJdZjsAQRa2A,Casa Fina Restaurant & Cantina,1842 E First St,Los Angeles,CA,90033
851,rKz7-H9utg_qnk8Hq9XeCA,Oomasa,100 Japanese Village Plaza Mall,Los Angeles,CA,90012
852,raQ67tc1XuGnBngutBRQVA,Uni Luv,928 S Western Ave,Los Angeles,CA,90006
853,D4DoEd0h6MqbMcJRlNaL_A,Sweetfin Poké,135 N Larchmont Blvd,Los Angeles,CA,90004
854,1g0N_c_9zFCdnYDViKnZAA,Trattoria Bella Roma,1509 S Robertson Blvd,Los Angeles,CA,90035
855,pkfizSmxGlsPxUjhKSEbfA,Señorita's Tamales,Palms Blvd National Blvd,Los Angeles,CA,90034
856,NGGgYVRjIoDJvr1z0RtJ8Q,Zankou Chicken,7851 W Sunset Blvd,Los Angeles,CA,90046
857,9wCgFHy-66hjdmo65qM8nQ,La Barbacha,2510 E Cesar E Chavez Ave,Los Angeles,CA,90033
858,6kvWWkoL0dWOEmFh2ui-vQ,Seasalt Fish Grill,812 W 7th St,Los Angeles,CA,90017
859,o2txtyq11-s0DZKSLbstHQ,Simplethings,8310 W 3rd St,Los Angeles,CA,90048
860,V3bupSfbAFY5q0-qSyHVaQ,Wood Ranch BBQ & Grill,189 The Grove Dr,Los Angeles,CA,90036
861,bSfdLm1ke0oFCUK7hiAQ_g,Frankie's,7228 Melrose Ave,Los Angeles,CA,90046
862,8hsT1rbpaOdjA_8UIbD5TA,Coral Fish Poke Shop,6357 Wilshire Blvd,Los Angeles,CA,90048
863,Uwch4QHdF5C8RWv-jQXeKA,Prime Cutts,8312 W 3rd St,Los Angeles,CA,90048
864,ysC-nfz4xZd1HQAqdswj3w,Red Rock-Sawtelle,11301 Olympic Blvd,Los Angeles,CA,90064
865,IkBr4b8ktf9L5ksxo9vtng,Poke Me,1244 Westwood Blvd,Los Angeles,CA,90024
866,b-LFQihu6kiiF0S4KOV9Ww,Rainbow Bar & Grill,9015 W Sunset Blvd,Los Angeles,CA,90069
867,GfqdLQ1Xs-yvGq_BHVm8HQ,Louisiana Pico Seafood,3601 W Pico Blvd,Los Angeles,CA,90019
868,bQgbihTHDMIa0Cq5wRPUXg,Kopan Ramen - Los Angeles,621 S Western Ave,Los Angeles,CA,90005
869,KvQ6feUPuHy2TSzIrMXpOQ,The Red Chickz,557 S Spring St,Los Angeles,CA,90013
870,K-jWQAp9Q-PIXEpN6pspWg,Park's BBQ,955 S Vermont Ave,Los Angeles,CA,90006
871,ctB_3PPniGMzs49wEqDF7g,Ten-Raku,4177 W 3rd St,Los Angeles,CA,90020
872,hqkBPE06fDqgQJxAOUA8Tw,ediBOL,300 S Santa Fe Ave,Los Angeles,CA,90013
873,OfuhjR6aLK51FH0QMSsC0w,Yupdduk Olympic,3132 W Olympic Blvd,Los Angeles,CA,90006
874,Pluwjw_dbs42d1PfhBl7qQ,Ay-Do-No Korean BBQ,5911 Hollywood Blvd,Los Angeles,CA,90028
875,GNB0I9ympoRqdLLAd3244w,Pearl's BBQ,2010 E 7th St,Los Angeles,CA,90021
876,b85ulrz02-Dx6SR_cAzxbw,RoRo's Chicken,6660 W Sunset Blvd,Los Angeles,CA,90028
877,sMsnfCbzi21JPmXg3xTQGQ,Côté Est,5022 York Blvd,Los Angeles,CA,90042
878,QADDG3waUFFqhjnSn_qfsA,The Black Cat,3909 Sunset Blvd,Los Angeles,CA,90029
879,6trcFSyS5BVVWa672jOJCw,Totoraku,10610 W Pico Blvd,Los Angeles,CA,90064
880,aP8KSphaUDCTXQR9Sy1kYw,Shrimp Daddy,785 Bay St,Los Angeles,CA,90021
881,qrIHMsZLOdKyLhq1o9UdAw,Meze,2662 Griffith Park Blvd,Los Angeles,CA,90039
882,VzDCWYpkzzpWa1s1E7M2Sg,Hyperion Public,2538 Hyperion Ave,Los Angeles,CA,90027
883,In8FGIdNYqyRs2ZWC20kOg,Wanderlust Cafe,1357 N Highland Ave,Los Angeles,CA,90028
884,b4qCjis-ET1NqAekMbIgbw,Franklin & Company Tavern,5923 Franklin Ave,Los Angeles,CA,90028
885,I_TuSSaSdjgM9h7C8mkX1A,Bunker Hill Bar & Grill,601 W 5th St,Los Angeles,CA,90017
886,y4T1r65LDjG_zaVSkxb8bg,Diamond Buffet & Grill,1901 W 7th St,Los Angeles,CA,90057
887,g-UI37EnWkqBfoRIiHFohw,Roscoe's House of Chicken & Waffles,106 W Manchester Ave,Los Angeles,CA,90003
888,XLUqiDlu6RqZdxTCK2tVEA,The Pikey,7617 W Sunset Blvd,Los Angeles,CA,90046
889,nSg-cCHKWxdjZO9RZiRPIQ,Seorae Village Pork BBQ,203 N Western Ave,Los Angeles,CA,90004
890,y5wFsjar321jPRipgXHwlw,Little Dom's,2128 Hillhurst Ave,Los Angeles,CA,90027
891,kqgPgdIPoW1Gik8bxAGuRg,The Pie Hole,714 Traction Ave,Los Angeles,CA,90013
892,xinlZt7g7kCgNDoapBvdoA,Chosun Galbee,3330 W Olympic Blvd,Los Angeles,CA,90019
893,tqeLoSVy_qRS5jaKTXCxyQ,The Stand,2000 Ave of the Stars,Los Angeles,CA,90067
894,8U25CW8za6U7ycNTlpJ2uQ,Lodge Bread,11918 Washington Blvd,Los Angeles,CA,90066
895,bowHbhd687hDsgWIrtWXbw,Red Pig,3101 W 8th St,Los Angeles,CA,90005
896,H_yVj1dSjqYacohidTiaIw,The Dresden Restaurant,1760 N Vermont Ave,Los Angeles,CA,90027
897,4LptA7lZJLKMuEgT6ZzMxQ,Westside Tavern,10850 W Pico Blvd,Los Angeles,CA,90064
898,qGGCJRrDyNz0FEW4xBFd-w,Factor's Famous Deli,9420 W Pico Blvd,Los Angeles,CA,90035
899,pgf0zR-6YG87T59mZge7HA,Kogi BBQ Truck - Verde,,Los Angeles,CA,90041
900,eQpVHQpWGaDhmy5WPsZZPw,Honda Ya Izakaya,333 S Alameda St,Los Angeles,CA,90013
901,tGLnYj10jHDZjxUbjzEtAg,Curry House CoCo Ichibanya,3500 W 6th St,Los Angeles,CA,90020
902,niNizz2D7NnBN4iPUi_auQ,sweetgreen,8055 W 3rd St,Los Angeles,CA,90048
903,v4dD7FyHEfg8KmuLVfzLNg,Kai Ramen At Joseph's Cafe,1777 Ivar Ave,Los Angeles,CA,90028
904,Ht2koR2fHWj6Lvo6WV7ODg,Triple 8 China Bar & Grill,800 W Olympic Blvd,Los Angeles,CA,90015
905,T5dLjiTH1BimMlsmtLIEkg,Winsome,1115 Sunset Blvd,Los Angeles,CA,90012
906,KS5FNhnHVz90SpcMKYtUrg,Max City BBQ,4729 Eagle Rock Blvd,Los Angeles,CA,90041
907,K1Q7DsCpFfPsJRRr4aOFoQ,LA Yimone,304 N Western Ave,Los Angeles,CA,90004
908,5_6Gn67IRK2AcHfwWjIARQ,Cosa Buona,2100 Sunset Blvd,Los Angeles,CA,90026
909,K4cDHp9MF_AcUFeQbQdQqA,Coffee + Food,5630 Melrose Ave,Los Angeles,CA,90038
910,m1uRMKP7tqGJLpXIHQawtg,Shojin Culver City,12406 Washington Blvd,Los Angeles,CA,90066
911,4fa2rkET8eT6sf9kUZx0jQ,DaeBokJung,2010 James M Wood Blvd,Los Angeles,CA,90006
912,KWYlYbgMk0_AkJ3NDhkYXg,Al & Bea's Mexican Food,2025 E 1st St,Los Angeles,CA,90033
913,FA6h38VClfL6hjFNgTGyTg,The Sandwich Joint,1068 W 7th St,Los Angeles,CA,90017
914,2GoGnKxRmKeL_D49pHlGKA,JINYA Ramen Bar,700 Wilshire Blvd,Los Angeles,CA,90017
915,JAcMCVZqG79ZC3nY10p0rA,Tocaya - Hollywood,6550 Sunset Blvd,Los Angeles,CA,90028
916,DTNkPkI26mgK-HChoFtusw,Kimbap Paradise,401 S Vermont Ave,Los Angeles,CA,90020
917,KKMwpxBjDuWXYto1ZwgVIg,Sunday Morning,3300 W 6th St,Los Angeles,CA,90020
918,EogEmrNVM2cedKSqHzosrA,Hummus Republic,8320 W 3rd St,Los Angeles,CA,90048
919,GClRpiOELwMXxodrS-FN6Q,Zankou Chicken - Hollywood,5065 W Sunset Blvd,Los Angeles,CA,90027
920,3VlKf0Z55eiPwl764_dVjA,California Ramen Factory,4010 W 3rd St,Los Angeles,CA,90020
921,V3LOV2oYfCd6_a02z1-Z0A,Hwal Uh Kwang Jang,730 S Western Ave,Los Angeles,CA,90005
922,6Qkw3cCuM4AR-t8_NRPh3A,Kuishimbo,4001 Wilshire Blvd,Los Angeles,CA,90010
923,87yQHTD_9NOCmiDCIpgyEw,Olympic Burger,1001 S Vermont Ave,Los Angeles,CA,90006
924,jrRMueuUYTHx94B80qio9g,My Dung Sandwich Shop,314 Ord St,Los Angeles,CA,90012
925,ZAZPJN4L_cSq6qXSN_U1dg,Grand Café,251 S Olive St,Los Angeles,CA,90012
926,02WFNRPN7YDeZo3IRNyfiw,Cena Vegan,5058 York Blvd,Los Angeles,CA,90042
927,KgPICfpkOeM_o4MdqUGDwA,Sea Dragon Chinese Restaurant,101 S Vermont Ave,Los Angeles,CA,90004
928,6xwX5NVwihXnRxN9g9iqOg,YUKGA Korean Cuisine,608 S New Hampshire Ave,Los Angeles,CA,90005
929,iDKPhqnZGbI5OqZxnj3ooA,Sushi Ye,244 S Oxford Ave,Los Angeles,CA,90004
930,wMp9reZy3h6fs6cIPMaK1Q,The Bazaar by José Andrés,465 South La Cienega Blvd,Beverly Hills,CA,90048
931,cirD1hiAtZSMKZNZ7ydJ7A,Kind People Kimchi,4220 Beverly Blvd,Los Angeles,CA,90004
932,y0s-AgaBcpqTX3LYAwtpGg,Genki Grill,6355 Wilshire Blvd,Los Angeles,CA,90048
933,-9NXuo0g_NwOPfnKX3Vr_g,DAMA,612 E 11th St,Los Angeles,CA,90015
934,b6yVLkq1I1V3cJFsDCiEcg,Spread Mediterranean Kitchen,334 S Main St,Los Angeles,CA,90013
935,fARvUjZALi0qdmgRS1uMhQ,IL Bambino Restaurant,1403 S Hooper Ave,Los Angeles,CA,90021
936,yO8Z1XUPGleOUT6L1QG9vA,It's Pho hollywood,1821 N Cahuenga Blvd,Los Angeles,CA,90028
937,ZBo-5Ty1Op5_mbRLilb02g,Denim The Eatery,227 E Pico Blvd,Los Angeles,CA,90015
938,VRlrvtmKcpY86oyF93WVRQ,Fresh Corn Grill,1266 Westwood Blvd,Los Angeles,CA,90024
939,U7NjzXfDei0-IzpmaWnmxA,Los Balcones,11334 Moorpark St,Los Angeles,CA,91602
940,Pb9KCJOvzfE20vRmOGtOrg,El Coyote Mexican Cafe,7312 Beverly Blvd,Los Angeles,CA,90036
941,cGPwkO-avZU1d17fQkjBgQ,Wadatsumi WLA,10914 W Pico Blvd,Los Angeles,CA,90064
942,NRLpgY95Fk9qAStOpk6iaA,Jang Choong Dong Restaurant,425 S Western Ave,Los Angeles,CA,90020
943,Xefl7O0wSC2pnGBH7zCXnw,Mariscos Jalisco,E 10th St And Towne Ave,Los Angeles,CA,90021
944,zSPIZ-7WU5i8RwDKP6N03w,Ivory on Sunset,8440 Sunset Blvd,West Hollywood,CA,90069
945,GBwagy_9bBmyiSETCbYnkg,Boo's Philly Cheesesteaks - Koreatown,3377 Wilshire Blvd,Los Angeles,CA,90010
946,0JyCFdMTvuj54i-RUuV5XA,Matsumoto,8385 Beverly Blvd,Los Angeles,CA,90048
947,XOHECaD9At7_DC8C6PaOuQ,Ubatuba Acai - Koreatown,549 S Western Ave,Los Angeles,CA,90020
948,8gONbBcJVQEkoQ2HagXj5w,Alta Nordic Kitchen,7274 Melrose Ave,Los Angeles,CA,90046
949,ssQVXX5Mxdjj54m6gaPAlA,Bistro On The Boulevard,3424 Wilshire Blvd,Los Angeles,CA,90010
950,F2W1R7yIvSOqD1xH_F1cZA,Wood,2861 Sunset Blvd,Los Angeles,CA,90026
951,GmPAyGM27YEyEzBB8JIAog,Brothers Bbq,3680 W 6th St,Los Angeles,CA,90020
952,B9-22buva5v480z9NovVYA,Ramen of York,5051 York Blvd,Los Angeles,CA,90042
953,W460ed_NBJmSZYbyDgho1w,Ohana BBQ,11269 Ventura Blvd,Los Angeles,CA,91604
954,Qexm-LVzSEcGjuH3yYulmA,Blu Jam Cafe,541 S Spring St,Los Angeles,CA,90013
955,LiOTgwAIorn3tDQz-ZJhaA,Dan Sung Sa,3317 W 6th St,Los Angeles,CA,90020
956,0TOFZhAptnr8fW-aP77hiQ,Halmoni Grandmas Dukbokki,322 E Pico Blvd,Los Angeles,CA,90015
957,OSYoTFAfq9_wFyDH_qUsTA,The Griddle Cafe,7916 W Sunset Blvd,Hollywood,CA,90046
958,aGLajxFClnvoAGUqgBy0fw,Robert's Russian Cuisine,1603 N La Brea Ave,Los Angeles,CA,90028
959,mnyGqQJWTwvm0i9nV1Y8NQ,40 Love,829 N La Cienega Blvd,Los Angeles,CA,90069
960,spKUIFIABLaU63Ex4PEYvQ,Rays Texas BBQ,6038 Santa Fe Ave,Huntington Park,CA,90255
961,dFBpwpzYjsKyY2DzbHylaQ,Hollywood Pies,6116 1/2 W Pico Blvd,Los Angeles,CA,90035
962,5aFl_pOJCs41CJ3wcAx4JQ,LiOrient Asian Bar & Restaurant,633 Hope Pl,Los Angeles,CA,90071
963,fqcag0RhI-0j1tiGWjq7rg,The Stinking Rose,55 N La Cienega Blvd,Beverly Hills,CA,90211
964,HW91V0vFjRGE152HgkJsnA,Jewel,654 N Hoover St,Los Angeles,CA,90004
965,UJEw3VVhwrFMgJCiTaQG8A,The Griffin,3000 Los Feliz Blvd,Los Angeles,CA,90039
966,kDVlUSFSUR8ZYIOJi4bDQQ,Odumak,338 S Western Ave,Los Angeles,CA,90020
967,OwheKHCdxP-v26l5nK_Lmw,Jitlada,5233 W Sunset Blvd,Los Angeles,CA,90027
968,h0GrFqbHymiMqSAXINxdUw,The Mar Vista,12249 Venice Blvd,Los Angeles,CA,90066
969,5GMLmeVr1ARHV6lygsFPzA,Manpuku Tokyo BBQ,2125 Sawtelle Blvd,Los Angeles,CA,90025
970,IsnwCIWyu3pdhY7ggHylog,Cantinho Brasileiro,10925 Venice Blvd,Los Angeles,CA,90034
971,xz66LQF-f06EtZ89Av6f3A,JJAN,3328 W 8th St,Los Angeles,CA,90005
972,HBjWB06zDqg17sqLmErGsg,SharksTeeth,,Los Angeles,CA,90029
973,hIythZZ3mpPwwhSJkUuJQQ,Pez Cantina,401 S Grand Ave,Los Angeles,CA,90071
974,Nlofg9suE-UaMf087oEVUA,Original Pantry Cafe,877 S Figueroa St,Los Angeles,CA,90017
975,puo151bPwqvTl46LYZyOsA,Larchmont Bungalow Cafe,2110 Sunset Blvd,Los Angeles,CA,90026
976,0MbnNM2IvNWMQ1YsPfDTjQ,"The Butcher, The Baker, The Cappuccino Maker",8653 W Sunset Blvd,West Hollywood,CA,90069
977,2FyPXlPXz1yEbQWy-qJDUw,Clementine,1751 Ensley Ave,Los Angeles,CA,90024
978,1QlB-j34UHX3OLMp2GCAZA,Slicey's Pizza,3627 W Pico Blvd,Los Angeles,CA,90019
979,FdczJ1FzuV_ZydUHXAa5DA,Young Dong Restaurant,3828 Wilshire Blvd,Los Angeles,CA,90010
980,yxmQoAeM43AqZu4SowGuqg,Younggoo's Naju Gomtang - Zero Nine,301 S Western Ave,Los Angeles,CA,90020
981,GS-MDD8-l0aA1gciNAJNHg,El Camaron Pelado,2676 Pasadena Ave,Los Angeles,CA,90031
982,cal0Wpupxj9c_AV7WzDXsw,GRANVILLE,8701 Beverly Blvd,West Hollywood,CA,90048
983,OSzx70nkKXjpsvB2B6wSvQ,Crepes De Paris,123 S Figueroa St,Los Angeles,CA,90012
984,-gvbpI_PayXy9agbPiGbpA,LA Café,639 S Spring St,Los Angeles,CA,90014
985,FrJGAJQuUmriYtzOHoGY3g,Palikao,130 E 6th St,Los Angeles,CA,90014
986,ajs7RHssyl-JWmnBmxkDAQ,CatCafe Lounge,1736 S Sepulveda Blvd,Los Angeles,CA,90025
987,7nFlWfz_n_RP_IeVdeNsSA,Ginza Ramen,709 South Vermont Ave,Los Angeles,CA,90005
988,VstQBjlgEhx9s6YC3AueMg,BBQ Chicken,3450 W 6th St,Los Angeles,CA,90010
989,bxrmxHXmX3at0rgT8Rwi9w,Lulu's Cafe,7149 Beverly Blvd,Los Angeles,CA,90036
990,nuUYTgkshR9ndzkr3slH1Q,Không Tên,11520 W Pico Blvd,Los Angeles,CA,90064
991,QOzowGzDejfQ2N4Rvrp40Q,Rocco's Italian Market and Deli,1761 N Vermont Ave,Los Angeles,CA,90027
992,GMyarj6vbMqr-sS2UG4KVw,Wake and Late,105 East 6th St,Los Angeles,CA,90014
993,v_QZxQO1BCKzN-8Rnc_u_w,Millie's Cafe,3524 W Sunset Blvd,Los Angeles,CA,90026
994,hPnoM6r2HX2BRWwi3zjAbQ,HK Chicken,124 N Western Ave,Los Angeles,CA,90004
995,qpZCi8oVqxOA_YSIaCaMnw,Northern Cafe,2904 S Figueroa St,Los Angeles,CA,90007
996,Z7GECXIM8nYEiDyOliTk-Q,Monte 52,5200 Monte Vista St,Los Angeles,CA,90042
997,FqyTKMzJVf54TlRnfp5lCQ,Buna Ethiopian Restaurant & Market,1034 S Fairfax Ave,Los Angeles,CA,90019
998,8h5z9lllo4x5HcBnOBOaBg,Asian Box,445 S Figueroa St,Los Angeles,CA,90071
999,w0cm7DFmBDQ_x2r83cvL6g,Apollonia's Pizzeria,5176 Wilshire Blvd,Los Angeles,CA,90036
